{"type":"FeatureCollection","features":[{"type":"Feature","properties":{"kind":"lake","name":"Lake Biwa","local":"\u7435\u7436\u6e56","km2":666.8},"geometry":{"type":"MultiPolygon","coordinates":[[[[135.8598,35.0145],[135.862,35.0155],[135.8606,35.0139],[135.8655,35.0137],[135.8744,35.0076],[135.8918,35.0054],[135.8929,35.0003],[135.896,34.9978],[135.8962,34.9908],[135.9043,34.9823],[135.9082,34.9829],[135.9097,34.9954],[135.9067,34.9974],[135.9096,35.0013],[135.9155,35.0017],[135.921,35.0098],[135.9186,35.0156],[135.9142,35.0168],[135.9177,35.0217],[135.9167,35.0272],[135.914,35.0282],[135.9155,35.0292],[135.9129,35.0299],[135.912,35.0343],[135.9059,35.036],[135.9111,35.0424],[135.9103,35.0408],[135.9178,35.0457],[135.9169,35.0505],[135.9294,35.0583],[135.9297,35.0634],[135.935,35.0702],[135.9317,35.0759],[135.9419,35.0749],[135.9383,35.0715],[135.9424,35.071],[135.9407,35.0714],[135.9481,35.076],[135.9468,35.0849],[135.9415,35.087],[135.9365,35.0944],[135.944,35.1153],[135.9416,35.1191],[135.9458,35.1252],[135.9522,35.1276],[135.9629,35.1219],[135.971,35.1211],[135.9759,35.1258],[135.9804,35.1232],[135.9761,35.126],[135.979,35.129],[135.9805,35.1279],[135.9796,35.1287],[135.9788,35.1291],[135.9809,35.1313],[135.9795,35.1357],[135.9877,35.1442],[136.0077,35.1353],[136.0133,35.1363],[136.0189,35.1459],[136.018,35.1455],[136.0171,35.1462],[136.0198,35.1469],[136.0388,35.1454],[136.0504,35.141],[136.0598,35.144],[136.0662,35.1531],[136.0653,35.157],[136.0598,35.1582],[136.0583,35.1621],[136.0589,35.1712],[136.0628,35.1743],[136.0619,35.1803],[136.0666,35.1823],[136.0697,35.1894],[136.0742,35.1913],[136.0882,35.1897],[136.0888,35.192],[136.0932,35.193],[136.0896,35.1987],[136.0836,35.1985],[136.0846,35.2029],[136.0907,35.2054],[136.0928,35.2012],[136.1013,35.2011],[136.1112,35.2077],[136.1093,35.2159],[136.1366,35.2203],[136.1547,35.2279],[136.152,35.2294],[136.2077,35.2569],[136.218,35.2673],[136.225,35.2691],[136.2432,35.2806],[136.2479,35.2855],[136.2429,35.2837],[136.2573,35.2951],[136.2533,35.3004],[136.268,35.3198],[136.2705,35.3278],[136.2679,35.3305],[136.2705,35.3316],[136.2765,35.3429],[136.2766,35.3643],[136.2683,35.373],[136.2663,35.374],[136.2661,35.3721],[136.2648,35.3714],[136.2656,35.3733],[136.2624,35.3728],[136.2637,35.3745],[136.2618,35.373],[136.2623,35.3724],[136.2602,35.3743],[136.2595,35.3757],[136.2602,35.3772],[136.2561,35.3812],[136.2448,35.3866],[136.2268,35.3873],[136.2269,35.3886],[136.2248,35.3892],[136.227,35.3869],[136.2155,35.3873],[136.2181,35.3902],[136.2143,35.3883],[136.2172,35.3957],[136.2146,35.4043],[136.2009,35.416],[136.195,35.4263],[136.1962,35.4338],[136.1874,35.4421],[136.1894,35.4417],[136.1895,35.4444],[136.1872,35.4502],[136.196,35.4518],[136.199,35.4552],[136.1986,35.4591],[136.1927,35.4663],[136.1943,35.4676],[136.1923,35.4701],[136.1928,35.4755],[136.1888,35.4796],[136.1917,35.4837],[136.1901,35.4863],[136.1915,35.4961],[136.1825,35.504],[136.176,35.4989],[136.1708,35.5018],[136.1664,35.5143],[136.1691,35.515],[136.1604,35.5129],[136.1631,35.5074],[136.1621,35.503],[136.1643,35.5024],[136.1629,35.4976],[136.1593,35.4959],[136.1624,35.488],[136.1563,35.4845],[136.1536,35.4786],[136.148,35.4745],[136.1503,35.464],[136.1589,35.463],[136.1543,35.4563],[136.1554,35.4529],[136.1514,35.4503],[136.1506,35.4433],[136.1478,35.4421],[136.1401,35.4447],[136.1439,35.4508],[136.1433,35.458],[136.1276,35.4564],[136.1294,35.4583],[136.1244,35.4612],[136.126,35.4647],[136.123,35.4704],[136.1245,35.4776],[136.1325,35.4772],[136.1324,35.4835],[136.1271,35.4851],[136.1241,35.4824],[136.1222,35.4871],[136.1187,35.4871],[136.1137,35.4833],[136.1105,35.4705],[136.1014,35.4523],[136.0921,35.4483],[136.0875,35.4489],[136.0808,35.4622],[136.0785,35.4645],[136.0744,35.4639],[136.062,35.4557],[136.06,35.449],[136.0504,35.446],[136.0418,35.4352],[136.0407,35.4308],[136.0459,35.4229],[136.0454,35.4098],[136.048,35.4072],[136.0405,35.4056],[136.0355,35.3989],[136.0341,35.3898],[136.0373,35.3832],[136.0358,35.3787],[136.0453,35.3762],[136.0545,35.3652],[136.0669,35.3573],[136.0722,35.3322],[136.0793,35.3259],[136.077,35.3191],[136.0792,35.3168],[136.0744,35.3152],[136.0721,35.3179],[136.0736,35.3146],[136.0702,35.3159],[136.0708,35.3165],[136.0712,35.3176],[136.0712,35.318],[136.0699,35.316],[136.0688,35.3178],[136.061,35.3167],[136.0453,35.302],[136.0373,35.3043],[136.0289,35.3035],[136.016,35.2933],[136.0132,35.2938],[136.0166,35.2919],[136.019,35.2793],[136.0113,35.2742],[135.9971,35.2693],[135.9934,35.2642],[135.9767,35.2572],[135.971,35.2459],[135.964,35.2431],[135.9615,35.2391],[135.9604,35.2342],[135.9634,35.2282],[135.9394,35.2133],[135.9359,35.205],[135.9296,35.2054],[135.9247,35.2003],[135.9164,35.181],[135.9242,35.1649],[135.9368,35.1562],[135.9259,35.1469],[135.9242,35.1389],[135.9262,35.1322],[135.932,35.1254],[135.9294,35.1264],[135.9279,35.1172],[135.923,35.1157],[135.9211,35.1093],[135.9158,35.1067],[135.9154,35.1027],[135.9117,35.1051],[135.9089,35.1041],[135.9108,35.1026],[135.9042,35.1012],[135.9103,35.0981],[135.9063,35.0951],[135.9063,35.0922],[135.8973,35.0866],[135.8949,35.0883],[135.8977,35.0831],[135.8913,35.0797],[135.8906,35.0761],[135.8887,35.0766],[135.8879,35.0747],[135.8908,35.0732],[135.8872,35.0682],[135.8886,35.0651],[135.8851,35.066],[135.8802,35.0628],[135.8781,35.0573],[135.8795,35.0544],[135.8757,35.0538],[135.8742,35.0458],[135.8691,35.0441],[135.8675,35.0326],[135.8699,35.0265],[135.8632,35.0233],[135.8598,35.0145]]]]}},{"type":"Feature","properties":{"kind":"lake","name":"Lake Kasumigaura","local":"\u971e\u30f6\u6d66\uff08\u897f\u6d66\uff09","km2":168.8},"geometry":{"type":"MultiPolygon","coordinates":[[[[140.2061,36.0739],[140.2199,36.0741],[140.2223,36.0561],[140.2279,36.0461],[140.2334,36.0428],[140.2512,36.0389],[140.2595,36.0345],[140.2784,36.0345],[140.2964,36.027],[140.3152,36.0315],[140.3227,36.0262],[140.3473,36.03],[140.3531,36.0278],[140.354,36.0238],[140.3623,36.0156],[140.3729,36.0096],[140.3766,36.0025],[140.3718,36.0017],[140.3636,35.995],[140.3628,35.9967],[140.3559,35.9947],[140.3454,35.9895],[140.3464,35.9769],[140.3531,35.972],[140.345,35.9699],[140.337,35.959],[140.3264,35.9612],[140.3243,35.9577],[140.3335,35.9576],[140.3321,35.9549],[140.3401,35.9595],[140.3452,35.9685],[140.3535,35.9703],[140.3541,35.9731],[140.3501,35.9764],[140.3541,35.988],[140.3654,35.9837],[140.3887,35.9824],[140.3966,35.9841],[140.3992,35.9898],[140.4035,35.9909],[140.4488,35.9772],[140.45,35.9741],[140.445,35.9742],[140.4463,35.9696],[140.4691,35.9592],[140.4582,35.957],[140.4574,35.9587],[140.4525,35.9457],[140.4498,35.945],[140.4538,35.9448],[140.4534,35.9418],[140.4626,35.9568],[140.4751,35.959],[140.4835,35.9574],[140.49,35.9529],[140.4979,35.9567],[140.5001,35.9619],[140.5072,35.9594],[140.509,35.9612],[140.5025,35.9652],[140.501,35.9725],[140.4962,35.9793],[140.4856,35.9843],[140.4745,35.9859],[140.4668,36.0103],[140.4649,36.0132],[140.462,36.012],[140.4516,36.0291],[140.454,36.03],[140.4539,36.03],[140.4466,36.0365],[140.4371,36.0508],[140.4208,36.0663],[140.4168,36.0756],[140.4158,36.0872],[140.4023,36.0937],[140.4011,36.1024],[140.3964,36.1053],[140.3996,36.1144],[140.3951,36.1231],[140.3868,36.1295],[140.3823,36.1382],[140.3675,36.149],[140.3571,36.1498],[140.3523,36.1458],[140.3523,36.14],[140.3439,36.1391],[140.3409,36.1401],[140.3346,36.1498],[140.3248,36.1533],[140.318,36.1602],[140.3056,36.1612],[140.3094,36.1563],[140.3066,36.1506],[140.321,36.1443],[140.3244,36.1463],[140.3363,36.1367],[140.3328,36.1291],[140.3367,36.1244],[140.3594,36.1174],[140.3821,36.104],[140.3809,36.1013],[140.3746,36.1001],[140.3754,36.0973],[140.3939,36.0889],[140.3896,36.0812],[140.3813,36.0758],[140.368,36.0619],[140.3476,36.0631],[140.3313,36.0605],[140.3057,36.0689],[140.2932,36.0605],[140.2757,36.0672],[140.2419,36.0701],[140.2407,36.0711],[140.2413,36.0737],[140.2372,36.082],[140.2257,36.0861],[140.2185,36.0848],[140.2184,36.0824],[140.2156,36.0835],[140.2168,36.0822],[140.2093,36.08],[140.2085,36.0777],[140.2181,36.0803],[140.2188,36.0765],[140.2061,36.0739]]]]}},{"type":"Feature","properties":{"kind":"lake","name":"Lake Inawashiro","local":"\u732a\u82d7\u4ee3\u6e56","km2":102.8},"geometry":{"type":"MultiPolygon","coordinates":[[[[140.0189,37.5061],[140.0218,37.5045],[140.0202,37.5026],[140.0218,37.4984],[140.0262,37.4969],[140.0267,37.4925],[140.0319,37.4905],[140.0297,37.4867],[140.0322,37.4829],[140.031,37.48],[140.0299,37.4812],[140.0303,37.4783],[140.0361,37.4777],[140.0425,37.4842],[140.0426,37.4765],[140.0474,37.4734],[140.0473,37.4595],[140.0585,37.4485],[140.064,37.4495],[140.0637,37.4454],[140.0694,37.4421],[140.0675,37.4385],[140.071,37.4283],[140.0776,37.4256],[140.0778,37.4206],[140.0967,37.4196],[140.098,37.4181],[140.0957,37.4152],[140.0977,37.4136],[140.101,37.4152],[140.0996,37.4173],[140.1075,37.4182],[140.1101,37.4135],[140.1174,37.4135],[140.1419,37.4316],[140.1534,37.449],[140.1512,37.4559],[140.155,37.4645],[140.1479,37.4781],[140.1532,37.4836],[140.1546,37.4901],[140.1467,37.4935],[140.1431,37.503],[140.1379,37.5012],[140.131,37.5047],[140.1184,37.5058],[140.1113,37.5104],[140.116,37.5217],[140.1116,37.531],[140.0831,37.5337],[140.0645,37.5325],[140.0482,37.5241],[140.0449,37.5167],[140.0364,37.5167],[140.0335,37.5116],[140.0301,37.5114],[140.0223,37.517],[140.0212,37.5146],[140.0235,37.5122],[140.0189,37.5061]]]]}},{"type":"Feature","properties":{"kind":"lake","name":"Nakaumi","local":"\u4e2d\u6d77","km2":86.5},"geometry":{"type":"MultiPolygon","coordinates":[[[[133.1246,35.4609],[133.1261,35.4509],[133.138,35.453],[133.1387,35.451],[133.1556,35.4486],[133.1591,35.4458],[133.164,35.447],[133.176,35.4356],[133.1851,35.4313],[133.1996,35.4358],[133.2044,35.4454],[133.2094,35.448],[133.2166,35.4447],[133.2189,35.455],[133.219,35.4543],[133.2205,35.4528],[133.2211,35.4528],[133.2217,35.4515],[133.2227,35.4518],[133.2227,35.4525],[133.2222,35.4534],[133.2224,35.4534],[133.2211,35.455],[133.221,35.456],[133.2212,35.4562],[133.2282,35.4504],[133.2379,35.449],[133.2409,35.4433],[133.2537,35.4438],[133.2541,35.4349],[133.2591,35.4298],[133.2621,35.4315],[133.2579,35.4334],[133.2592,35.435],[133.2679,35.4368],[133.2713,35.431],[133.2773,35.4352],[133.2928,35.4278],[133.2986,35.429],[133.3005,35.4321],[133.3012,35.4284],[133.3163,35.4152],[133.3113,35.4118],[133.3005,35.4155],[133.2949,35.4147],[133.2922,35.4189],[133.2913,35.417],[133.2951,35.4131],[133.3002,35.415],[133.3111,35.411],[133.3213,35.4127],[133.3176,35.4169],[133.3252,35.4221],[133.32,35.4258],[133.3224,35.4309],[133.3224,35.4327],[133.3216,35.4326],[133.3201,35.4325],[133.3194,35.4331],[133.3211,35.4336],[133.3187,35.4339],[133.3166,35.4314],[133.2994,35.4372],[133.3017,35.4378],[133.3028,35.4406],[133.3015,35.438],[133.2968,35.4394],[133.2886,35.4459],[133.2849,35.4459],[133.2814,35.4503],[133.2794,35.4484],[133.2752,35.4506],[133.272,35.4562],[133.2711,35.4555],[133.266,35.4588],[133.2648,35.4586],[133.2662,35.4611],[133.2611,35.4666],[133.2567,35.4712],[133.2484,35.477],[133.2474,35.476],[133.2394,35.4854],[133.2323,35.489],[133.2247,35.4867],[133.2245,35.49],[133.2306,35.4925],[133.2301,35.4954],[133.2241,35.499],[133.2241,35.5003],[133.2175,35.5078],[133.2036,35.5172],[133.2009,35.5223],[133.2029,35.5214],[133.2026,35.5249],[133.2008,35.5224],[133.1984,35.5288],[133.2035,35.5317],[133.2026,35.5337],[133.2028,35.5339],[133.2041,35.532],[133.2031,35.5343],[133.1988,35.5363],[133.1946,35.5341],[133.1955,35.5303],[133.1907,35.5268],[133.1849,35.5283],[133.1803,35.5377],[133.1757,35.5352],[133.1792,35.5354],[133.1782,35.5334],[133.1801,35.5335],[133.1822,35.5276],[133.1773,35.5315],[133.1773,35.5342],[133.1722,35.5331],[133.1736,35.5353],[133.1627,35.533],[133.1606,35.5376],[133.1575,35.5383],[133.1523,35.5354],[133.153,35.5308],[133.1542,35.5321],[133.1536,35.5347],[133.1542,35.536],[133.1571,35.5375],[133.1581,35.5374],[133.1602,35.5367],[133.1611,35.5356],[133.162,35.5321],[133.1802,35.5244],[133.1825,35.521],[133.1796,35.5243],[133.162,35.5307],[133.1606,35.5361],[133.157,35.5373],[133.154,35.5354],[133.1544,35.5317],[133.1522,35.5284],[133.1454,35.5223],[133.1495,35.5204],[133.1454,35.5219],[133.1446,35.5193],[133.1393,35.52],[133.1374,35.5156],[133.1316,35.5137],[133.1307,35.5032],[133.1373,35.4921],[133.1329,35.4892],[133.1321,35.4882],[133.1321,35.4869],[133.1395,35.4829],[133.1442,35.4765],[133.1389,35.4692],[133.1277,35.4659],[133.1246,35.4609]]]]}},{"type":"Feature","properties":{"kind":"lake","name":"Lake Shinji","local":"\u5b8d\u9053\u6e56","km2":79.2},"geometry":{"type":"MultiPolygon","coordinates":[[[[132.8647,35.4128],[132.9001,35.4197],[132.9013,35.4181],[132.8958,35.4128],[132.903,35.4067],[132.9094,35.4118],[132.9153,35.4135],[132.9207,35.4119],[132.9279,35.4171],[132.9402,35.4191],[132.9417,35.4237],[132.9495,35.4213],[132.9547,35.4216],[132.9582,35.4245],[132.974,35.4236],[132.9859,35.4322],[132.9982,35.4297],[133.0043,35.4314],[133.0089,35.4383],[133.018,35.4349],[133.0351,35.4368],[133.044,35.4436],[133.0513,35.4596],[133.0537,35.4606],[133.0539,35.4662],[133.0525,35.4684],[133.0387,35.4646],[133.0228,35.4731],[133.0182,35.4719],[133.0079,35.4753],[133.0035,35.4754],[133.0059,35.4749],[132.995,35.4736],[132.9716,35.4806],[132.9631,35.4796],[132.9518,35.4731],[132.9479,35.4751],[132.929,35.471],[132.9202,35.465],[132.9127,35.4648],[132.9011,35.4588],[132.8984,35.4614],[132.8787,35.4603],[132.8673,35.4537],[132.8668,35.4484],[132.8707,35.4439],[132.8766,35.4449],[132.8807,35.4364],[132.878,35.429],[132.8842,35.4249],[132.886,35.4197],[132.8647,35.4128]]]]}},{"type":"Feature","properties":{"kind":"lake","name":"Lake Kussharo","local":"\u5c48\u659c\u8def\u6e56","km2":79.1},"geometry":{"type":"MultiPolygon","coordinates":[[[[144.2592,43.6076],[144.2635,43.5971],[144.2722,43.5881],[144.2779,43.5837],[144.2906,43.5825],[144.2941,43.5771],[144.3054,43.5765],[144.3108,43.5802],[144.3079,43.5847],[144.3172,43.5862],[144.3184,43.5843],[144.3113,43.578],[144.3216,43.5729],[144.3237,43.5654],[144.3227,43.5596],[144.328,43.5577],[144.3366,43.5588],[144.3417,43.5627],[144.3408,43.5683],[144.3501,43.5811],[144.3482,43.6002],[144.3603,43.6116],[144.3577,43.6175],[144.3613,43.6315],[144.376,43.642],[144.3809,43.6483],[144.3845,43.6487],[144.392,43.6446],[144.4116,43.6477],[144.4148,43.6534],[144.4143,43.6649],[144.4118,43.6686],[144.4001,43.6682],[144.3906,43.6743],[144.3787,43.6715],[144.366,43.6752],[144.343,43.671],[144.3175,43.671],[144.3091,43.6617],[144.3023,43.6584],[144.2941,43.6602],[144.2795,43.6544],[144.2762,43.6488],[144.2753,43.6408],[144.2689,43.6363],[144.2678,43.6326],[144.2703,43.6288],[144.262,43.6194],[144.2592,43.6076]]]]}},{"type":"Feature","properties":{"kind":"lake","name":"Lake Shikotsu","local":"\u652f\u7b0f\u6e56","km2":78.1},"geometry":{"type":"MultiPolygon","coordinates":[[[[141.2514,42.7521],[141.2584,42.7378],[141.2669,42.7301],[141.2624,42.7231],[141.264,42.72],[141.297,42.7038],[141.3037,42.7046],[141.3215,42.7176],[141.3263,42.7187],[141.3323,42.7269],[141.3425,42.7344],[141.3587,42.7383],[141.3746,42.7358],[141.3839,42.7411],[141.4061,42.7431],[141.4086,42.7461],[141.4028,42.7542],[141.4033,42.7714],[141.399,42.7764],[141.3874,42.7809],[141.359,42.7983],[141.3386,42.8039],[141.3283,42.8025],[141.3235,42.7947],[141.3144,42.789],[141.313,42.7819],[141.3036,42.7753],[141.3038,42.769],[141.2938,42.7671],[141.2895,42.7686],[141.283,42.7656],[141.2809,42.7705],[141.2644,42.7703],[141.2564,42.7645],[141.2514,42.7521]]]]}},{"type":"Feature","properties":{"kind":"lake","name":"Lake Toya","local":"\u6d1e\u723a\u6e56","km2":70.4},"geometry":{"type":"MultiPolygon","coordinates":[[[[140.7889,42.5974],[140.7927,42.593],[140.7988,42.5719],[140.8014,42.57],[140.8063,42.5717],[140.8059,42.5685],[140.81,42.5659],[140.8252,42.5668],[140.8433,42.5642],[140.847,42.5622],[140.8442,42.5591],[140.8472,42.5622],[140.8582,42.5565],[140.8751,42.5579],[140.8775,42.5604],[140.8778,42.5633],[140.8809,42.5652],[140.8852,42.5632],[140.8927,42.5718],[140.9018,42.5725],[140.9067,42.5823],[140.9176,42.5905],[140.9223,42.5976],[140.9228,42.6037],[140.9205,42.6108],[140.916,42.612],[140.9117,42.6188],[140.9044,42.6215],[140.9028,42.6274],[140.8963,42.6331],[140.8905,42.6347],[140.8855,42.6405],[140.8674,42.6465],[140.857,42.6396],[140.8508,42.6397],[140.844,42.6451],[140.8361,42.6473],[140.8285,42.6438],[140.825,42.6402],[140.8268,42.6386],[140.8197,42.635],[140.819,42.627],[140.8113,42.6237],[140.8094,42.6189],[140.8034,42.6174],[140.803,42.6108],[140.7907,42.6066],[140.7889,42.5974]]]]}},{"type":"Feature","properties":{"kind":"lake","name":"Lake Hamana","local":"\u6d5c\u540d\u6e56","km2":69.5},"geometry":{"type":"MultiPolygon","coordinates":[[[[137.5127,34.7567],[137.5155,34.7539],[137.5202,34.7559],[137.5291,34.7564],[137.5273,34.7553],[137.5295,34.7546],[137.5322,34.7584],[137.5385,34.7576],[137.5287,34.7509],[137.5295,34.7481],[137.5327,34.7492],[137.5375,34.7461],[137.5419,34.7336],[137.5281,34.7323],[137.5308,34.727],[137.5291,34.7235],[137.5367,34.725],[137.541,34.7232],[137.5402,34.7209],[137.5446,34.7174],[137.5473,34.7235],[137.553,34.7229],[137.5553,34.7184],[137.5536,34.7182],[137.5577,34.7135],[137.5572,34.7078],[137.5637,34.711],[137.5651,34.707],[137.5628,34.706],[137.5661,34.7041],[137.5637,34.7034],[137.5659,34.7008],[137.564,34.7001],[137.5641,34.6956],[137.5691,34.6949],[137.5842,34.695],[137.5843,34.6928],[137.5787,34.6928],[137.5785,34.6908],[137.5881,34.6828],[137.5962,34.6801],[137.5986,34.6761],[137.5994,34.6799],[137.6086,34.6814],[137.6079,34.6846],[137.6074,34.6829],[137.6067,34.6822],[137.6062,34.682],[137.6066,34.6863],[137.6078,34.6865],[137.6085,34.6874],[137.6136,34.7012],[137.6138,34.7061],[137.618,34.7053],[137.6191,34.7096],[137.6212,34.7093],[137.6191,34.711],[137.6235,34.7178],[137.6215,34.7197],[137.6297,34.7294],[137.6322,34.7282],[137.6427,34.7359],[137.6399,34.7397],[137.6354,34.7393],[137.635,34.7427],[137.6477,34.7557],[137.652,34.7573],[137.652,34.761],[137.6496,34.7615],[137.6474,34.7605],[137.6386,34.7543],[137.6314,34.7537],[137.6224,34.7321],[137.6118,34.7392],[137.6076,34.7337],[137.6063,34.725],[137.5996,34.7209],[137.5928,34.7211],[137.5877,34.7251],[137.5914,34.7388],[137.6011,34.7545],[137.6094,34.7575],[137.6078,34.7586],[137.6117,34.7622],[137.6124,34.7666],[137.6102,34.7682],[137.6155,34.77],[137.6133,34.7667],[137.6174,34.7656],[137.6183,34.7627],[137.628,34.7647],[137.6284,34.7683],[137.6173,34.7688],[137.616,34.7752],[137.6239,34.7737],[137.6264,34.7756],[137.6243,34.7775],[137.6332,34.7832],[137.642,34.7834],[137.6432,34.7865],[137.6394,34.7874],[137.6456,34.79],[137.6453,34.7929],[137.6439,34.7906],[137.6454,34.7935],[137.6304,34.7978],[137.6257,34.8018],[137.623,34.8015],[137.624,34.7989],[137.6199,34.801],[137.6207,34.7949],[137.6154,34.7929],[137.6158,34.789],[137.6134,34.7898],[137.6158,34.7841],[137.6134,34.7827],[137.6141,34.7807],[137.606,34.7798],[137.6064,34.7854],[137.5994,34.7891],[137.5941,34.7843],[137.5844,34.7854],[137.5798,34.7815],[137.5723,34.7815],[137.5697,34.7779],[137.5688,34.7687],[137.5586,34.7607],[137.5561,34.7663],[137.5499,34.7671],[137.5482,34.771],[137.5612,34.7728],[137.5643,34.7762],[137.5639,34.781],[137.5678,34.7846],[137.5659,34.787],[137.5702,34.7886],[137.5712,34.7911],[137.5692,34.7926],[137.5728,34.7948],[137.5648,34.796],[137.5604,34.7929],[137.5595,34.7963],[137.5532,34.7988],[137.5535,34.8011],[137.557,34.8013],[137.5537,34.8022],[137.5488,34.8003],[137.5469,34.7937],[137.5492,34.7905],[137.5466,34.7906],[137.5475,34.7881],[137.5437,34.7867],[137.5479,34.7856],[137.5479,34.7836],[137.5429,34.7834],[137.5419,34.7812],[137.5449,34.7753],[137.5471,34.7753],[137.5479,34.7697],[137.5325,34.7669],[137.5303,34.7638],[137.5317,34.7597],[137.5265,34.7641],[137.5139,34.7595],[137.5127,34.7567]]]]}},{"type":"Feature","properties":{"kind":"lake","name":"Lake Ogawara","local":"\u5c0f\u5ddd\u539f\u6e56","km2":61.7},"geometry":{"type":"MultiPolygon","coordinates":[[[[141.2769,40.7415],[141.2824,40.7295],[141.287,40.7271],[141.2882,40.7234],[141.2914,40.7226],[141.291,40.7209],[141.2959,40.7203],[141.2976,40.7212],[141.299,40.7205],[141.2969,40.7171],[141.3069,40.7171],[141.3122,40.7201],[141.3118,40.7219],[141.3252,40.7267],[141.3314,40.727],[141.3451,40.7203],[141.3515,40.7233],[141.3584,40.7357],[141.3597,40.7527],[141.3571,40.7721],[141.3482,40.7794],[141.3479,40.804],[141.3514,40.8122],[141.3591,40.816],[141.3661,40.8274],[141.3674,40.8413],[141.3583,40.8447],[141.3372,40.8429],[141.3261,40.8473],[141.329,40.8497],[141.3283,40.8528],[141.3154,40.8474],[141.3077,40.8313],[141.2985,40.8221],[141.2968,40.8141],[141.3091,40.7798],[141.3164,40.7743],[141.318,40.7636],[141.3253,40.7591],[141.3265,40.7533],[141.3164,40.749],[141.3083,40.7493],[141.3038,40.7456],[141.2989,40.7496],[141.2909,40.7502],[141.2844,40.7551],[141.2876,40.7469],[141.2769,40.7415]]]]}},{"type":"Feature","properties":{"kind":"lake","name":"Lake Towada","local":"\u5341\u548c\u7530\u6e56","km2":60.9},"geometry":{"type":"MultiPolygon","coordinates":[[[[140.828,40.4784],[140.8363,40.4668],[140.8381,40.4603],[140.8446,40.4556],[140.8396,40.4507],[140.8396,40.4471],[140.8453,40.4432],[140.8441,40.442],[140.847,40.4358],[140.8555,40.4302],[140.8573,40.4191],[140.8681,40.4136],[140.8735,40.4158],[140.8761,40.413],[140.8827,40.4143],[140.8927,40.4208],[140.8915,40.4305],[140.8855,40.4356],[140.8791,40.4353],[140.8805,40.4409],[140.8761,40.4453],[140.8765,40.4511],[140.8782,40.4515],[140.8776,40.4487],[140.8804,40.4461],[140.8851,40.4465],[140.8838,40.4426],[140.8897,40.4361],[140.8973,40.4321],[140.9073,40.4328],[140.9136,40.4369],[140.9151,40.4444],[140.911,40.4536],[140.9029,40.4571],[140.9057,40.4653],[140.9113,40.4666],[140.9216,40.4639],[140.9228,40.4602],[140.9167,40.4528],[140.9233,40.4509],[140.9212,40.4502],[140.9207,40.4497],[140.9293,40.4484],[140.9283,40.4462],[140.9301,40.4458],[140.937,40.4475],[140.9383,40.4538],[140.9435,40.4569],[140.9447,40.4626],[140.9406,40.4674],[140.941,40.4782],[140.9329,40.4828],[140.9258,40.4919],[140.9207,40.4928],[140.9216,40.4966],[140.916,40.5037],[140.8972,40.5036],[140.8914,40.4999],[140.871,40.4968],[140.8625,40.4998],[140.8462,40.4968],[140.8336,40.4903],[140.8321,40.4848],[140.8339,40.4834],[140.828,40.4784]]]]}},{"type":"Feature","properties":{"kind":"lake","name":"Lake Notoro","local":"\u80fd\u53d6\u6e56","km2":57.7},"geometry":{"type":"MultiPolygon","coordinates":[[[[144.0976,44.0297],[144.0994,44.0246],[144.1036,44.0232],[144.1023,44.0193],[144.1127,44.0143],[144.1159,44.0164],[144.1209,44.0139],[144.1185,44.013],[144.1257,44.0121],[144.1306,44.012],[144.1509,44.0164],[144.1797,44.0319],[144.1807,44.0331],[144.1766,44.0357],[144.1861,44.0476],[144.1907,44.0462],[144.1933,44.0495],[144.1976,44.0673],[144.1968,44.0762],[144.1912,44.0844],[144.1927,44.0957],[144.1888,44.0977],[144.1905,44.1026],[144.1862,44.104],[144.1831,44.1022],[144.1828,44.099],[144.1783,44.0992],[144.1768,44.0996],[144.1812,44.0992],[144.1807,44.1009],[144.1697,44.0975],[144.134,44.0947],[144.1137,44.09],[144.1127,44.0764],[144.1079,44.0673],[144.1084,44.0637],[144.106,44.0622],[144.1055,44.0524],[144.0998,44.0372],[144.1014,44.0358],[144.0976,44.0297]]]]}},{"type":"Feature","properties":{"kind":"lake","name":"Lake Kitaura","local":"\u5317\u6d66","km2":33.1},"geometry":{"type":"MultiPolygon","coordinates":[[[[140.5152,36.1416],[140.5225,36.1284],[140.5197,36.1226],[140.5282,36.1136],[140.5237,36.1062],[140.5303,36.1028],[140.5219,36.0944],[140.5383,36.0859],[140.5362,36.0796],[140.5373,36.0726],[140.5289,36.0723],[140.5286,36.0685],[140.5473,36.0612],[140.5482,36.0579],[140.5422,36.0536],[140.5568,36.0462],[140.5512,36.038],[140.5459,36.0398],[140.5373,36.0398],[140.5431,36.0348],[140.5603,36.0291],[140.5543,36.0178],[140.5487,36.0127],[140.5431,36.0115],[140.5377,36.0148],[140.537,36.0127],[140.5467,36.0054],[140.5533,36.005],[140.5631,36.0002],[140.5813,35.9841],[140.5881,35.9817],[140.5888,35.9798],[140.5825,35.9798],[140.5787,35.9765],[140.5886,35.9616],[140.6027,35.9577],[140.6103,35.9637],[140.6024,35.9699],[140.5953,35.9694],[140.6052,35.9841],[140.6001,35.988],[140.599,35.9939],[140.5958,35.9969],[140.5967,36.0035],[140.5808,36.0104],[140.579,36.0192],[140.5854,36.0229],[140.5854,36.026],[140.5785,36.0261],[140.5721,36.0296],[140.5758,36.0371],[140.5694,36.0434],[140.5712,36.0501],[140.5686,36.054],[140.559,36.0582],[140.5605,36.0622],[140.5566,36.0698],[140.5498,36.0727],[140.5424,36.0801],[140.5409,36.0928],[140.5335,36.0949],[140.5376,36.0998],[140.5339,36.1084],[140.5309,36.1095],[140.5342,36.1133],[140.5338,36.1174],[140.5303,36.1191],[140.532,36.1226],[140.5281,36.1249],[140.5261,36.1334],[140.5152,36.1416]]]]}},{"type":"Feature","properties":{"kind":"lake","name":"Lake Abashiri","local":"\u7db2\u8d70\u6e56","km2":32.1},"geometry":{"type":"MultiPolygon","coordinates":[[[[144.1248,43.94],[144.1268,43.9373],[144.1359,43.9372],[144.1464,43.9413],[144.1509,43.9339],[144.1586,43.9349],[144.16,43.932],[144.163,43.9304],[144.1617,43.9293],[144.166,43.9278],[144.166,43.9267],[144.1662,43.9261],[144.1622,43.9283],[144.1578,43.9254],[144.1613,43.9226],[144.1586,43.9213],[144.1611,43.9216],[144.1614,43.9179],[144.1765,43.9191],[144.1812,43.9245],[144.1762,43.9352],[144.1809,43.9431],[144.1775,43.9512],[144.188,43.9567],[144.1974,43.9569],[144.2007,43.9612],[144.1949,43.9677],[144.1969,43.969],[144.1973,43.9772],[144.2004,43.9802],[144.1981,43.9835],[144.1997,43.9902],[144.2036,43.9939],[144.2163,43.9976],[144.2162,43.9951],[144.2131,43.9947],[144.2146,43.9926],[144.2124,43.9888],[144.2141,43.9877],[144.2111,43.9816],[144.215,43.9756],[144.2173,43.983],[144.2204,43.9846],[144.218,43.9904],[144.2229,43.9939],[144.2222,43.9998],[144.2255,44.0025],[144.2098,44.0075],[144.19,44.0073],[144.1809,44.0011],[144.1687,43.9975],[144.1495,43.9638],[144.1312,43.9536],[144.1248,43.94]]]]}},{"type":"Feature","properties":{"kind":"lake","name":"Lake Tazawa","local":"\u7530\u6ca2\u6e56","km2":25.7},"geometry":{"type":"MultiPolygon","coordinates":[[[[140.6282,39.7225],[140.6347,39.7113],[140.6525,39.6979],[140.6695,39.7038],[140.684,39.7018],[140.6897,39.7173],[140.6998,39.7274],[140.6958,39.7361],[140.6806,39.7462],[140.6478,39.7517],[140.639,39.7482],[140.6282,39.7225]]]]}},{"type":"Feature","properties":{"kind":"lake","name":"Lake Shumarinai","local":"\u6731\u97a0\u5185\u6e56","km2":21.6},"geometry":{"type":"MultiPolygon","coordinates":[[[[142.1693,44.3341],[142.1751,44.335],[142.1988,44.3248],[142.1986,44.3222],[142.1823,44.3285],[142.1843,44.3246],[142.1872,44.3252],[142.1897,44.322],[142.1975,44.3192],[142.1926,44.3203],[142.1878,44.3183],[142.1859,44.3202],[142.1853,44.3186],[142.1789,44.3213],[142.1832,44.3185],[142.1792,44.3178],[142.1801,44.3163],[142.1885,44.315],[142.1855,44.3143],[142.1852,44.311],[142.1827,44.3136],[142.1795,44.3121],[142.1796,44.3132],[142.1768,44.3138],[142.1802,44.3095],[142.183,44.3094],[142.1817,44.3073],[142.1838,44.3057],[142.1808,44.305],[142.1826,44.2999],[142.1872,44.3],[142.1862,44.2961],[142.1932,44.2966],[142.2001,44.2912],[142.2056,44.2937],[142.203,44.2947],[142.2047,44.2962],[142.2004,44.2966],[142.2026,44.2985],[142.2196,44.2966],[142.225,44.2986],[142.2237,44.3019],[142.2181,44.303],[142.2286,44.3028],[142.2227,44.3075],[142.2123,44.3035],[142.209,44.3039],[142.2187,44.3088],[142.2268,44.3103],[142.2327,44.3055],[142.2399,44.3036],[142.2469,44.3059],[142.2531,44.305],[142.2486,44.307],[142.2578,44.309],[142.2543,44.3106],[142.2465,44.309],[142.2425,44.3057],[142.2362,44.3077],[142.2395,44.3117],[142.2436,44.3123],[142.2383,44.3136],[142.238,44.3171],[142.2401,44.3174],[142.2376,44.3227],[142.2444,44.326],[142.2386,44.3261],[142.2387,44.3283],[142.2472,44.3309],[142.2426,44.3327],[142.2388,44.331],[142.2362,44.3363],[142.2389,44.3422],[142.2355,44.3425],[142.2348,44.3351],[142.2306,44.3351],[142.2343,44.3333],[142.2295,44.3306],[142.2234,44.3204],[142.22,44.3233],[142.2242,44.3265],[142.2195,44.3278],[142.225,44.3299],[142.2235,44.3309],[142.2257,44.3312],[142.2267,44.3354],[142.2204,44.3314],[142.22,44.336],[142.2164,44.3353],[142.2188,44.3426],[142.21,44.3487],[142.2157,44.3483],[142.2146,44.3531],[142.2207,44.3567],[142.2189,44.3604],[142.2251,44.3665],[142.2296,44.3656],[142.2351,44.3689],[142.2365,44.3655],[142.2393,44.3632],[142.2517,44.3605],[142.2518,44.3582],[142.2544,44.3627],[142.2513,44.3637],[142.2544,44.364],[142.2487,44.3661],[142.2374,44.3656],[142.2369,44.3685],[142.2346,44.3694],[142.2257,44.3679],[142.2173,44.361],[142.216,44.3669],[142.2215,44.3685],[142.2187,44.3702],[142.2137,44.3679],[142.215,44.3647],[142.2131,44.3633],[142.21,44.3661],[142.207,44.3652],[142.2071,44.3677],[142.2021,44.3693],[142.2033,44.371],[142.2008,44.3696],[142.186,44.3732],[142.1907,44.3712],[142.1891,44.3699],[142.1917,44.368],[142.2017,44.3651],[142.2036,44.3599],[142.2135,44.3613],[142.2152,44.3584],[142.2189,44.358],[142.2142,44.3571],[142.2133,44.3544],[142.2094,44.3558],[142.2049,44.3509],[142.1906,44.356],[142.1945,44.3514],[142.1913,44.3495],[142.1954,44.3502],[142.1993,44.3453],[142.1947,44.3444],[142.197,44.3427],[142.1934,44.34],[142.1967,44.3327],[142.1914,44.3326],[142.1862,44.3427],[142.1839,44.342],[142.1778,44.3482],[142.1852,44.3339],[142.1802,44.3339],[142.1772,44.3386],[142.1712,44.3402],[142.1695,44.3397],[142.1745,44.3362],[142.1693,44.3341]]]]}},{"type":"Feature","properties":{"kind":"river","name":"\u77f3\u72e9\u5ddd"},"geometry":{"type":"LineString","coordinates":[[142.3363,43.779],[142.3263,43.7811],[142.3135,43.7888],[142.2971,43.7871],[142.2773,43.7739],[142.2764,43.7609],[142.2728,43.7562],[142.255,43.754],[142.2449,43.7572],[142.241,43.7508],[142.2408,43.7375],[142.2173,43.7267],[142.2007,43.7328],[142.1756,43.7307],[142.1707,43.7262],[142.1751,43.7176],[142.1693,43.7141],[142.1445,43.727],[142.1438,43.721],[142.115,43.7088],[142.0879,43.7082],[142.082,43.7038],[142.0745,43.7057],[142.0638,43.7142],[142.0458,43.7143],[142.0389,43.7089],[142.0307,43.6888],[142.0169,43.6753],[141.9853,43.6806],[141.9618,43.669],[141.947,43.6726],[141.9245,43.6647],[141.9152,43.6559],[141.9112,43.6323],[141.8881,43.6263],[141.8809,43.6199],[141.8844,43.6052],[141.8805,43.592],[141.8845,43.5819],[141.8783,43.5686],[141.8917,43.5511],[141.8893,43.5388],[141.896,43.5251],[141.8986,43.5084],[141.8955,43.4972],[141.8705,43.4812],[141.8711,43.4462],[141.8642,43.4402],[141.8464,43.4334],[141.8336,43.4122],[141.8229,43.4008],[141.8199,43.3885],[141.7972,43.3782],[141.7758,43.377],[141.765,43.3616],[141.7564,43.3568],[141.7071,43.3483],[141.6879,43.3219],[141.6643,43.3075],[141.6551,43.2951],[141.6545,43.2851],[141.6634,43.2341],[141.6623,43.2248],[141.6565,43.214],[141.6166,43.1726],[141.6178,43.1454],[141.609,43.1321],[141.5682,43.1158],[141.4723,43.1498],[141.4485,43.1543],[141.4203,43.1724],[141.3831,43.214],[141.378,43.2239],[141.354,43.2284],[141.3493,43.2318],[141.3486,43.2376],[141.3633,43.2516],[141.3721,43.2688]]}},{"type":"Feature","properties":{"kind":"river","name":"\u77f3\u72e9\u5ddd"},"geometry":{"type":"LineString","coordinates":[[142.9965,43.6208],[143.0059,43.6238],[143.0052,43.6274],[143.0112,43.6324],[143.0074,43.6341],[143.0126,43.6414],[143.0251,43.6421],[143.0283,43.6466],[143.0366,43.6479],[143.046,43.6558],[143.044,43.6665],[143.0489,43.6704],[143.0413,43.6716],[143.038,43.6776],[143.0288,43.6793],[143.0273,43.6847],[143.0188,43.6865],[143.0157,43.7005],[143.0036,43.708],[142.9999,43.7154],[142.9781,43.718],[142.9656,43.7262],[142.9422,43.7288],[142.9421,43.7342],[142.9345,43.7468],[142.9109,43.765],[142.902,43.7749],[142.8991,43.7864],[142.878,43.8036],[142.8732,43.8115],[142.8081,43.8262],[142.7795,43.8409],[142.7545,43.8428],[142.7432,43.8468],[142.7298,43.8461],[142.7232,43.8504],[142.7018,43.8464],[142.6972,43.8513],[142.7008,43.8566],[142.6985,43.8646],[142.6795,43.8737],[142.6763,43.8796],[142.6341,43.8997],[142.6247,43.8981],[142.59,43.9064],[142.5812,43.905],[142.5735,43.899],[142.5629,43.9004],[142.5508,43.8953],[142.5361,43.8985],[142.5217,43.8922],[142.5152,43.8796],[142.4946,43.857],[142.4657,43.8399],[142.4441,43.8337],[142.4319,43.8265],[142.4276,43.8195]]}},{"type":"Feature","properties":{"kind":"river","name":"Teshio River"},"geometry":{"type":"LineString","coordinates":[[142.7989,43.9802],[142.7836,43.9846],[142.7687,43.9776],[142.7531,43.9782],[142.7375,43.9902],[142.7382,43.9928],[142.7326,43.9944],[142.7321,43.9988],[142.7176,44.0138],[142.7195,44.0168],[142.7137,44.0215],[142.7083,44.0338],[142.7104,44.0558],[142.7258,44.062],[142.7297,44.0687],[142.7438,44.0768],[142.7425,44.0836],[142.7266,44.091],[142.7104,44.1144],[142.6875,44.1181],[142.6701,44.1277],[142.6449,44.1246],[142.6419,44.1198],[142.6291,44.1125],[142.6032,44.1134],[142.5977,44.1095],[142.5874,44.1091],[142.561,44.1156],[142.5467,44.1147],[142.5227,44.1245],[142.4904,44.1249],[142.4468,44.1404],[142.4377,44.1554],[142.4242,44.1644],[142.4148,44.1756],[142.4145,44.1911],[142.4004,44.1903],[142.3853,44.1952],[142.3798,44.2025],[142.3682,44.2068],[142.3585,44.2167],[142.3562,44.2232],[142.3583,44.2504],[142.3497,44.2673],[142.355,44.2753],[142.3702,44.2862],[142.3649,44.2945],[142.3674,44.3019],[142.3895,44.3201],[142.412,44.3327],[142.4283,44.3338],[142.4391,44.3394],[142.4413,44.3455],[142.439,44.3545],[142.4478,44.3695],[142.4495,44.3818],[142.4718,44.3996],[142.4745,44.4048],[142.4598,44.4172],[142.4449,44.4209],[142.4426,44.4327],[142.4313,44.4361],[142.4178,44.4455],[142.3893,44.453],[142.3447,44.454],[142.333,44.4608],[142.3341,44.4683],[142.3301,44.4736],[142.3359,44.4787],[142.331,44.4877],[142.3344,44.5012],[142.3243,44.5067],[142.3111,44.5222],[142.3354,44.5308],[142.3287,44.5411],[142.333,44.5517],[142.33,44.5661],[142.3167,44.578],[142.3118,44.5903],[142.2898,44.5977],[142.2926,44.6028],[142.3065,44.6036],[142.3017,44.6143],[142.2803,44.6226],[142.272,44.6357],[142.2568,44.6415],[142.263,44.6568],[142.2544,44.6632],[142.2555,44.6756],[142.2612,44.6832],[142.2592,44.6905],[142.2628,44.7004],[142.2707,44.7102],[142.2687,44.7161],[142.2518,44.729],[142.2476,44.7286],[142.245,44.7224],[142.233,44.7265],[142.2237,44.7257],[142.2131,44.7324],[142.1941,44.7342],[142.1843,44.7423],[142.1716,44.7243],[142.1564,44.7343],[142.137,44.7368],[142.1324,44.748],[142.1252,44.7525],[142.1163,44.7496],[142.1149,44.7336],[142.1068,44.7303],[142.0836,44.7328],[142.0634,44.7309],[142.0458,44.7372],[142.0434,44.7419],[142.0504,44.7565],[142.067,44.7722],[142.0594,44.7808],[142.0706,44.7945],[142.0692,44.8147],[142.0766,44.8413],[142.0649,44.8465],[142.0631,44.8593],[142.0504,44.8657],[142.0489,44.8768],[142.0267,44.8855],[142.0169,44.895],[142.0002,44.8983],[141.9899,44.9159],[141.9773,44.9129],[141.9667,44.9025],[141.9538,44.8975],[141.9483,44.9112],[141.9119,44.9055],[141.9095,44.9092],[141.9185,44.9155],[141.9167,44.919],[141.8759,44.9297],[141.8767,44.9553],[141.8735,44.9674],[141.865,44.9773],[141.8626,44.9884],[141.8583,44.9922],[141.8391,44.9923],[141.8321,44.9895],[141.8224,44.9927],[141.8003,44.9922],[141.7763,44.9844],[141.7656,44.9849],[141.7453,44.9689],[141.7307,44.965],[141.7162,44.9541],[141.715,44.9482],[141.7217,44.9403],[141.7383,44.8899],[141.7405,44.881],[141.7366,44.8782]]}},{"type":"Feature","properties":{"kind":"river","name":"Ishikari River"},"geometry":{"type":"LineString","coordinates":[[142.4276,43.8195],[142.41,43.8127],[142.3968,43.7975],[142.3803,43.7931],[142.3674,43.7806],[142.3542,43.7777],[142.3363,43.779]]}},{"type":"Feature","properties":{"kind":"river","name":"\u5bcc\u58eb\u5ddd"},"geometry":{"type":"LineString","coordinates":[[138.4723,35.549],[138.4513,35.5339],[138.4537,35.518],[138.46,35.5095],[138.4467,35.5036],[138.4468,35.4988],[138.4567,35.4868],[138.4474,35.4806],[138.4416,35.462],[138.4481,35.4539],[138.4379,35.4389],[138.4406,35.4354],[138.4495,35.4334],[138.4546,35.4199],[138.446,35.3956],[138.4469,35.3886],[138.4524,35.3818],[138.4502,35.3756],[138.4521,35.3673]]}},{"type":"Feature","properties":{"kind":"river","name":"\u5bcc\u58eb\u5ddd"},"geometry":{"type":"LineString","coordinates":[[138.4521,35.3673],[138.4491,35.3569],[138.4392,35.3543],[138.4384,35.3507],[138.4412,35.3448],[138.4483,35.3408],[138.4445,35.3211],[138.455,35.3067],[138.4543,35.2931],[138.4592,35.2889],[138.4612,35.2747],[138.4705,35.268],[138.4741,35.26],[138.4911,35.2462],[138.4959,35.2388],[138.5053,35.2404],[138.5126,35.2287],[138.528,35.2274],[138.5236,35.2161],[138.5352,35.2259],[138.5394,35.2256],[138.5412,35.2126],[138.5553,35.2019]]}},{"type":"Feature","properties":{"kind":"river","name":"\u5bcc\u58eb\u5ddd"},"geometry":{"type":"LineString","coordinates":[[138.5584,35.1985],[138.5661,35.1905],[138.5768,35.196],[138.5884,35.1952],[138.5951,35.1898],[138.6061,35.1927],[138.607,35.1844],[138.6172,35.1803],[138.6196,35.176],[138.6201,35.1646],[138.6277,35.1435]]}},{"type":"Feature","properties":{"kind":"river","name":"\u5bcc\u58eb\u5ddd"},"geometry":{"type":"LineString","coordinates":[[141.4058,38.5039],[141.4101,38.5172],[141.4083,38.5226],[141.4122,38.5301],[141.4427,38.5653]]}},{"type":"Feature","properties":{"kind":"river","name":"\u5317\u4e0a\u5ddd"},"geometry":{"type":"LineString","coordinates":[[141.1172,38.998],[141.1249,38.9925],[141.1323,38.9772],[141.1535,38.9767],[141.1589,38.973],[141.157,38.9582],[141.1646,38.95],[141.2082,38.9484],[141.2105,38.9389],[141.23,38.9246],[141.2368,38.9122],[141.2658,38.8971],[141.2601,38.8772],[141.2629,38.8652],[141.2545,38.8512],[141.2612,38.847],[141.2627,38.8405],[141.2601,38.8308],[141.2509,38.826],[141.2527,38.8184],[141.2471,38.8026],[141.2473,38.7927],[141.2633,38.7871],[141.2683,38.7679],[141.2835,38.7503],[141.2676,38.731],[141.2681,38.7097],[141.2767,38.7058],[141.286,38.7193],[141.2936,38.7185],[141.2857,38.7085],[141.29,38.6931],[141.2858,38.6848],[141.2876,38.6588],[141.2838,38.6464],[141.2962,38.6165],[141.2961,38.6035],[141.3028,38.5926],[141.2956,38.5613],[141.3053,38.5543],[141.3016,38.5423],[141.3064,38.5341],[141.3074,38.5141],[141.3162,38.5113],[141.3476,38.5266],[141.3631,38.5273],[141.3861,38.538],[141.4195,38.5431],[141.4325,38.564],[141.4417,38.5698],[141.462,38.5756]]}},{"type":"Feature","properties":{"kind":"river","name":"\u5317\u4e0a\u5ddd"},"geometry":{"type":"LineString","coordinates":[[141.1731,39.8675],[141.1763,39.8636],[141.1676,39.8607],[141.1691,39.8534],[141.1677,39.8495],[141.1624,39.8479],[141.1612,39.833],[141.1498,39.8297],[141.1505,39.8234],[141.1556,39.8217],[141.1518,39.8168],[141.1549,39.8129],[141.1476,39.8089],[141.1622,39.8081],[141.1605,39.8033],[141.1659,39.801],[141.1625,39.7977],[141.1687,39.7801],[141.1641,39.776],[141.1662,39.7697],[141.1621,39.7667],[141.152,39.7667],[141.1536,39.7606],[141.146,39.7631],[141.1415,39.761],[141.1481,39.7553],[141.1494,39.7465],[141.141,39.7465],[141.1373,39.7374],[141.1277,39.7387],[141.1276,39.7319],[141.1314,39.7294],[141.1289,39.7246]]}},{"type":"Feature","properties":{"kind":"river","name":"\u5317\u4e0a\u5ddd"},"geometry":{"type":"LineString","coordinates":[[141.1613,39.6839],[141.1615,39.6741],[141.1696,39.6674],[141.1712,39.664],[141.1719,39.6594],[141.1721,39.6589],[141.1725,39.658],[141.1727,39.6578],[141.1814,39.6542],[141.1776,39.6442],[141.1817,39.6361],[141.1823,39.6157],[141.1977,39.5959],[141.1944,39.59],[141.1776,39.5809],[141.1799,39.5715],[141.1749,39.5533],[141.1766,39.5428]]}},{"type":"Feature","properties":{"kind":"river","name":"\u5317\u4e0a\u5ddd"},"geometry":{"type":"LineString","coordinates":[[141.1706,39.4309],[141.1751,39.4261],[141.1739,39.4216],[141.1636,39.4162],[141.1499,39.402],[141.1354,39.4007],[141.1303,39.3959],[141.1316,39.3653],[141.1431,39.3536],[141.1378,39.3366],[141.1543,39.3314],[141.1567,39.3159],[141.1494,39.3052],[141.1474,39.2962],[141.1262,39.2798],[141.1241,39.2654],[141.1111,39.2467],[141.1045,39.2304],[141.1284,39.2211],[141.1296,39.2109],[141.1261,39.1989],[141.1403,39.1943],[141.1461,39.173],[141.165,39.1632],[141.1821,39.1212],[141.1841,39.0954]]}},{"type":"Feature","properties":{"kind":"river","name":"\u5317\u4e0a\u5ddd"},"geometry":{"type":"LineString","coordinates":[[141.2141,40.049],[141.2299,40.0491],[141.2367,40.0441],[141.2374,40.0217],[141.2349,40.0137],[141.24,40.0059],[141.225,39.9907],[141.2283,39.9777],[141.2212,39.9738],[141.2155,39.9645],[141.2138,39.9587],[141.2161,39.9552],[141.2136,39.9525],[141.2173,39.9485],[141.213,39.9384],[141.1974,39.9403],[141.1902,39.9375],[141.1946,39.929],[141.1996,39.9277],[141.1936,39.9145],[141.1965,39.9123],[141.1948,39.9083],[141.1985,39.9001],[141.1902,39.8919],[141.1926,39.888],[141.1825,39.873]]}},{"type":"Feature","properties":{"kind":"river","name":"Kitakami River"},"geometry":{"type":"LineString","coordinates":[[141.1595,39.0594],[141.1474,39.0398],[141.1289,39.0329],[141.1301,39.0284],[141.1388,39.0272],[141.1399,39.0236],[141.1213,39.0117],[141.1172,38.998]]}},{"type":"Feature","properties":{"kind":"river","name":"Kitakami River"},"geometry":{"type":"LineString","coordinates":[[141.1583,39.4962],[141.1532,39.4925],[141.1522,39.4839],[141.1618,39.4742],[141.1626,39.4685],[141.153,39.4607],[141.1531,39.4488],[141.1445,39.4377],[141.1537,39.4329],[141.1706,39.4309]]}},{"type":"Feature","properties":{"kind":"river","name":"\u6dc0\u5ddd"},"geometry":{"type":"LineString","coordinates":[[134.1889,35.1679],[134.194,35.1533],[134.1911,35.1448],[134.1998,35.1315],[134.2001,35.1082],[134.2038,35.0971],[134.2022,35.088]]}},{"type":"Feature","properties":{"kind":"river","name":"\u6dc0\u5ddd"},"geometry":{"type":"LineString","coordinates":[[140.3217,39.5955],[140.3207,39.5922],[140.3139,39.5943],[140.3083,39.5912],[140.3074,39.5968],[140.2985,39.5922],[140.2885,39.5969],[140.2879,39.5895],[140.2742,39.5882],[140.2648,39.5798],[140.2683,39.5749],[140.2666,39.5711],[140.2524,39.5651],[140.2594,39.5584],[140.2589,39.5541],[140.2511,39.5494],[140.2378,39.5479],[140.243,39.5424]]}},{"type":"Feature","properties":{"kind":"river","name":"\u6dc0\u5ddd"},"geometry":{"type":"LineString","coordinates":[[140.4406,39.6926],[140.4097,39.6911],[140.3802,39.6807],[140.3771,39.6726],[140.3661,39.6717],[140.368,39.6688],[140.3525,39.6695],[140.3554,39.6641],[140.35,39.6624],[140.3524,39.6571],[140.3485,39.656],[140.352,39.6535],[140.3417,39.6482],[140.3406,39.6438],[140.3377,39.6464],[140.3313,39.6425],[140.3284,39.6444],[140.3271,39.6409],[140.3219,39.6431],[140.312,39.6275],[140.3078,39.6269],[140.3131,39.6235],[140.3129,39.6191],[140.3175,39.6188],[140.3204,39.6121],[140.3183,39.6087],[140.3261,39.608],[140.3195,39.606],[140.3219,39.5977]]}},{"type":"Feature","properties":{"kind":"river","name":"Mogami River"},"geometry":{"type":"LineString","coordinates":[[140.1293,37.839],[140.1227,37.8468],[140.12,37.8604],[140.1283,37.8762],[140.127,37.8835],[140.1215,37.8897],[140.1225,37.9039],[140.1183,37.9108],[140.1192,37.9221],[140.1209,37.9335],[140.1303,37.939],[140.1341,37.9585],[140.1369,37.964],[140.1472,37.969],[140.1449,37.9723],[140.1487,37.9798],[140.138,37.9907],[140.1397,37.9995],[140.1377,38.0064],[140.1325,38.0107],[140.1327,38.0188],[140.1007,38.0314],[140.0994,38.0341],[140.1038,38.0402],[140.0976,38.0473],[140.0799,38.044],[140.0695,38.0558],[140.0721,38.0639],[140.0578,38.0699],[140.0468,38.0817],[140.0455,38.1043],[140.0484,38.1112],[140.0453,38.1206],[140.0516,38.1254],[140.0487,38.1343],[140.0547,38.1414],[140.051,38.1516],[140.0613,38.1617],[140.0708,38.1639],[140.0774,38.1709],[140.0782,38.1809],[140.0866,38.1825],[140.0936,38.1943],[140.1025,38.1994],[140.0955,38.2156],[140.0967,38.2227],[140.0889,38.2327],[140.0953,38.2462],[140.1058,38.2512],[140.1077,38.2631],[140.1351,38.2774],[140.1355,38.2897],[140.1259,38.29],[140.1255,38.2943],[140.1367,38.2993],[140.1405,38.31],[140.1585,38.3122],[140.1573,38.3302],[140.1646,38.3283],[140.1643,38.3327],[140.1712,38.3335],[140.1789,38.3279],[140.1839,38.3289],[140.1888,38.3385],[140.1866,38.346],[140.2082,38.3539],[140.2099,38.3641],[140.2181,38.3664],[140.2098,38.3762],[140.2141,38.384],[140.2288,38.3713],[140.2523,38.3635],[140.2641,38.3636],[140.272,38.3553],[140.2708,38.3444],[140.2899,38.3402],[140.306,38.3492],[140.3039,38.3599],[140.3172,38.3683],[140.3258,38.3803],[140.3258,38.3953],[140.3321,38.4132],[140.3279,38.4209],[140.3385,38.4328],[140.3269,38.4427],[140.3318,38.4497],[140.3453,38.458],[140.3409,38.4656],[140.3481,38.475],[140.3458,38.4871],[140.3513,38.5012],[140.3472,38.511],[140.3531,38.5159],[140.3306,38.5209],[140.3267,38.5259],[140.3313,38.5279],[140.3373,38.5241],[140.3433,38.5266],[140.3532,38.5218],[140.3642,38.525],[140.3766,38.5381],[140.3892,38.5716],[140.3778,38.5837],[140.3604,38.5909],[140.348,38.6026],[140.3486,38.6094],[140.3542,38.6123],[140.3524,38.6201],[140.3338,38.6255],[140.3285,38.6318],[140.3372,38.6401],[140.3505,38.6441],[140.3539,38.6509],[140.3523,38.6559],[140.3437,38.6588],[140.3398,38.6466],[140.3283,38.6488],[140.3263,38.6532],[140.3314,38.668],[140.3286,38.6708],[140.316,38.6755],[140.314,38.6661],[140.3186,38.6587],[140.3146,38.6571],[140.2701,38.6661],[140.2662,38.6717],[140.2564,38.6763],[140.2398,38.7013],[140.2282,38.6996],[140.2251,38.702],[140.2241,38.7205],[140.2107,38.7197],[140.2117,38.7246],[140.2224,38.7249],[140.2252,38.7297],[140.2089,38.7298],[140.1958,38.7223],[140.187,38.7299],[140.1664,38.7257],[140.1641,38.7278],[140.1654,38.7372],[140.1607,38.741],[140.1339,38.7408],[140.1224,38.7464],[140.1083,38.7481],[140.0955,38.7574],[140.0892,38.7573],[140.0824,38.7505],[140.0779,38.7504],[140.0558,38.7661],[140.036,38.7728],[140.0249,38.7906],[140.0177,38.7938],[140.0006,38.7933],[139.9944,38.799],[139.9917,38.809],[139.964,38.8229],[139.9591,38.8345],[139.9429,38.8521],[139.9401,38.8722],[139.9166,38.8802],[139.9004,38.878],[139.8843,38.8817],[139.8711,38.8758],[139.8572,38.879],[139.8366,38.8932],[139.8181,38.9181],[139.8088,38.9235]]}},{"type":"Feature","properties":{"kind":"river","name":"\u5929\u7adc\u5ddd"},"geometry":{"type":"LineString","coordinates":[[137.9464,35.8006],[137.9609,35.7784],[137.9586,35.7567],[137.9696,35.7379],[137.9674,35.7269],[137.9697,35.716],[137.9621,35.7029],[137.9515,35.7018],[137.956,35.693],[137.9439,35.6763],[137.9526,35.6717],[137.9477,35.6682],[137.9492,35.6608],[137.9443,35.6541],[137.9446,35.6425],[137.9345,35.637],[137.9371,35.6262],[137.9261,35.6277],[137.9271,35.6135],[137.9238,35.6086],[137.933,35.6017],[137.9229,35.5909],[137.917,35.5723],[137.9022,35.572],[137.8942,35.5627],[137.894,35.5541],[137.8865,35.5387],[137.8622,35.5125],[137.8636,35.5021],[137.8575,35.4882],[137.8449,35.4794],[137.838,35.4659],[137.8216,35.4568],[137.8176,35.443],[137.8205,35.437],[137.8151,35.4304],[137.8166,35.4219],[137.8111,35.4149],[137.817,35.4139],[137.8176,35.4101],[137.8071,35.4001],[137.8096,35.3975],[137.8085,35.3917],[137.8132,35.3893],[137.8112,35.3756],[137.8271,35.3646],[137.8334,35.3504],[137.8446,35.3442],[137.8319,35.3255],[137.8363,35.3221],[137.8379,35.3145],[137.848,35.3099],[137.8466,35.3058],[137.8425,35.3065],[137.8451,35.3001],[137.843,35.2964],[137.8503,35.2919],[137.8421,35.2877],[137.8411,35.2839],[137.8528,35.2796],[137.851,35.2753],[137.8422,35.2752],[137.8276,35.2654],[137.8303,35.2628],[137.8296,35.2548],[137.8345,35.2526],[137.8325,35.2492],[137.8352,35.2384],[137.822,35.2259],[137.8384,35.2127],[137.8276,35.2114],[137.8309,35.205],[137.8216,35.2037],[137.8164,35.1881],[137.8072,35.1879],[137.8031,35.1831],[137.8104,35.175],[137.8179,35.1749],[137.8251,35.1685],[137.8212,35.1585],[137.829,35.1521],[137.8215,35.148],[137.8142,35.1523],[137.8142,35.1399],[137.8065,35.1312],[137.8008,35.131],[137.7977,35.1362],[137.793,35.1353],[137.7923,35.1288],[137.7987,35.1256],[137.8013,35.1072],[137.794,35.1022],[137.7929,35.0953],[137.7961,35.0904],[137.7896,35.0853],[137.7936,35.0756],[137.8009,35.078],[137.8011,35.088],[137.8038,35.0897],[137.8201,35.0888],[137.8199,35.0808],[137.8225,35.0797],[137.837,35.0864],[137.8405,35.0773],[137.8376,35.0701],[137.8512,35.0576],[137.8552,35.0482],[137.8452,35.0272],[137.8374,35.0187],[137.8353,35.0016],[137.8253,34.9925],[137.8298,34.9656],[137.8352,34.964],[137.841,34.9669],[137.8445,34.9639],[137.8431,34.96],[137.8338,34.9584],[137.8275,34.9519],[137.8357,34.9419],[137.8316,34.938],[137.836,34.9307],[137.8122,34.9405],[137.8137,34.9232],[137.8094,34.9119],[137.8164,34.9096],[137.8194,34.9048],[137.8108,34.9019],[137.8123,34.8918],[137.8026,34.8818],[137.8032,34.8751],[137.8096,34.8679],[137.8083,34.863],[137.8011,34.8581],[137.8051,34.8541],[137.8204,34.8555],[137.8254,34.8532],[137.829,34.8311],[137.8257,34.8237],[137.8302,34.819],[137.8202,34.7948],[137.8243,34.788],[137.8169,34.7723],[137.8207,34.7701],[137.8203,34.7537],[137.8158,34.7439],[137.805,34.7342],[137.8043,34.7124],[137.7986,34.707],[137.7954,34.6936],[137.7974,34.6894],[137.7904,34.6781],[137.7938,34.6641],[137.7908,34.6538],[137.7961,34.6489]]}},{"type":"Feature","properties":{"kind":"river","name":"\u5929\u7adc\u5ddd"},"geometry":{"type":"LineString","coordinates":[[138.0531,36.0534],[138.0383,36.0543],[138.0292,36.0479],[138.0267,36.0385],[138.0146,36.0274],[138.0152,36.0234],[138.0052,36.0035],[138.0069,35.999],[138.0026,35.9956],[138.0027,35.9866],[137.9946,35.9792],[137.9959,35.9728],[137.9818,35.9644],[137.9837,35.9573],[137.9936,35.9537],[137.9913,35.9476],[137.9937,35.9442],[137.9889,35.9408],[137.9902,35.9348],[137.9857,35.9276],[137.9918,35.924],[137.9973,35.9077],[137.992,35.8851],[137.984,35.8731],[137.9844,35.8639],[137.9745,35.8561],[137.9719,35.847],[137.954,35.8335],[137.9454,35.8165],[137.9464,35.8006]]}},{"type":"Feature","properties":{"kind":"river","name":"\u5929\u7adc\u5ddd"},"geometry":{"type":"LineString","coordinates":[[139.1148,36.5362],[139.0728,36.5232],[139.061,36.5115],[139.0463,36.5043],[139.0307,36.503],[139.0296,36.4995],[139.0249,36.4989],[139.0196,36.5026]]}},{"type":"Feature","properties":{"kind":"river","name":"\u963f\u8cc0\u91ce\u5ddd"},"geometry":{"type":"LineString","coordinates":[[139.5775,37.6855],[139.5826,37.6952],[139.5759,37.6969],[139.5667,37.6941],[139.5692,37.7048],[139.567,37.7083],[139.5611,37.7095],[139.5324,37.7025],[139.5184,37.7122],[139.5168,37.7177],[139.4987,37.7189],[139.4971,37.7224],[139.4919,37.7235],[139.48,37.7202],[139.4689,37.7035],[139.4851,37.7076],[139.4893,37.7048],[139.4903,37.6973],[139.4758,37.6932],[139.4683,37.685],[139.4269,37.6894],[139.3989,37.7027],[139.39,37.699],[139.386,37.6896],[139.3797,37.6861],[139.3773,37.6896],[139.3806,37.7008],[139.3771,37.7101],[139.3824,37.7155],[139.38,37.7212],[139.3685,37.7209],[139.3664,37.7131],[139.3633,37.712],[139.3498,37.7195],[139.3439,37.7284],[139.3284,37.7325],[139.3196,37.7435],[139.3051,37.7358],[139.2804,37.7365],[139.2584,37.7448],[139.2328,37.7464],[139.2255,37.7495],[139.2217,37.7524],[139.222,37.7594],[139.2175,37.761],[139.2146,37.7703],[139.1986,37.7748],[139.1789,37.7861],[139.1751,37.7924],[139.176,37.8043],[139.1593,37.8064],[139.1524,37.8115],[139.1517,37.8162],[139.1606,37.8299],[139.1529,37.8471],[139.1721,37.8619],[139.1746,37.8682],[139.1571,37.8882],[139.1496,37.9042],[139.1449,37.9324],[139.1278,37.9619]]}},{"type":"Feature","properties":{"kind":"river","name":"Tone River"},"geometry":{"type":"LineString","coordinates":[[139.1194,37.009],[139.1183,37.0007],[139.1211,36.997],[139.1125,36.9916],[139.1149,36.9902],[139.1128,36.9817],[139.1048,36.973],[139.1057,36.9636],[139.0983,36.9539],[139.1,36.9476],[139.0803,36.9357],[139.0676,36.9347],[139.0585,36.9261],[139.0554,36.908],[139.0567,36.8936],[139.0535,36.8901],[139.0616,36.869],[139.0567,36.8668],[139.06,36.8601],[139.055,36.8568],[139.0581,36.8475],[139.0497,36.8379],[139.05,36.8325],[139.0437,36.8278],[139.0445,36.8218],[139.0503,36.8196],[139.0495,36.812],[139.0385,36.8045],[139.0324,36.8054],[139.0235,36.8013],[139.0118,36.8075],[139.0021,36.801],[138.9911,36.7995],[138.9883,36.7927],[138.9811,36.7899],[138.9763,36.7828],[138.9668,36.7795],[138.9712,36.7724],[138.9699,36.7623],[138.9767,36.7575],[138.9769,36.7491],[138.984,36.7452],[138.979,36.726],[138.9827,36.7223],[138.978,36.7166],[138.9787,36.7037],[138.9871,36.6905],[138.9957,36.6835],[139.0019,36.6682],[139.0144,36.6616],[139.0204,36.6538],[139.0222,36.6432],[139.039,36.6305],[139.0356,36.6255],[139.0412,36.6209],[139.0434,36.6091],[139.0503,36.5999],[139.0502,36.5924],[139.0582,36.5862],[139.0513,36.5854],[139.0495,36.5807],[139.0511,36.5745],[139.0572,36.5717],[139.0408,36.568],[139.0421,36.5647],[139.0387,36.5623],[139.0421,36.556],[139.0327,36.5531],[139.0348,36.5499],[139.0306,36.5475],[139.0271,36.5372],[139.0307,36.5299],[139.0195,36.5289],[139.0278,36.5195],[139.0193,36.5162],[139.0189,36.5109],[139.0225,36.5072],[139.016,36.4965],[139.0177,36.4884],[139.0364,36.4637],[139.0393,36.4424],[139.0331,36.4259],[139.0515,36.4076],[139.0514,36.4003],[139.0587,36.3913],[139.0598,36.3769],[139.0705,36.3634],[139.0725,36.3538],[139.0699,36.3495],[139.0753,36.3443],[139.0783,36.3312],[139.0917,36.3267],[139.0939,36.3217],[139.1041,36.3169],[139.1285,36.3134],[139.1536,36.3035],[139.1701,36.2794],[139.1988,36.2605],[139.2153,36.2555],[139.2336,36.2569],[139.2419,36.2526],[139.2808,36.2482],[139.3156,36.2352],[139.3586,36.2456],[139.3693,36.2448],[139.4092,36.2247],[139.4432,36.1975],[139.4606,36.1896],[139.4833,36.1893],[139.5053,36.1935],[139.5299,36.1913],[139.5505,36.1998],[139.5716,36.203],[139.585,36.2105],[139.5955,36.2088],[139.6227,36.1875],[139.6918,36.1566],[139.7117,36.1352],[139.7465,36.1321],[139.7653,36.1214],[139.772,36.1117],[139.7825,36.1076],[139.7992,36.0946],[139.8137,36.0622],[139.8412,36.0374],[139.8577,36.0289],[139.8769,36.0101],[139.8869,35.987],[139.8972,35.9783],[139.9234,35.9654],[139.9392,35.9407],[139.9517,35.9363],[139.9918,35.9112],[140.0159,35.9103],[140.0457,35.8927],[140.0759,35.8837],[140.0954,35.8836],[140.1226,35.8728],[140.1499,35.8439],[140.1627,35.8442],[140.208,35.8611],[140.2402,35.8552],[140.2675,35.87],[140.2803,35.8735],[140.3075,35.8647],[140.3207,35.8651],[140.3481,35.8825],[140.3556,35.8949],[140.3642,35.8991],[140.4006,35.91],[140.4224,35.9067],[140.4641,35.9182],[140.5125,35.9009],[140.5347,35.9052],[140.5664,35.9013],[140.6206,35.8624],[140.6753,35.8507],[140.6968,35.8424],[140.7167,35.8259],[140.7236,35.8032],[140.7316,35.7923],[140.8126,35.7429],[140.838,35.739],[140.8466,35.7403],[140.8521,35.7446]]}},{"type":"Feature","properties":{"kind":"river","name":"\u6728\u66fd\u5ddd"},"geometry":{"type":"LineString","coordinates":[[136.6894,35.2529],[136.6821,35.2466],[136.6808,35.2453],[136.679,35.2414],[136.6823,35.2136],[136.6823,35.2027],[136.6778,35.1835],[136.6773,35.1768],[136.6777,35.1732],[136.6812,35.1609],[136.6816,35.1573],[136.6811,35.1467],[136.6827,35.1394],[136.691,35.1274]]}},{"type":"Feature","properties":{"kind":"river","name":"\u6728\u66fd\u5ddd"},"geometry":{"type":"LineString","coordinates":[[136.6894,35.2529],[136.679,35.2414],[136.6823,35.2027],[136.6773,35.1768],[136.6812,35.1609],[136.6811,35.1467],[136.6821,35.1417],[136.6827,35.1394],[136.6845,35.1341],[136.691,35.1274]]}},{"type":"Feature","properties":{"kind":"river","name":"\u6728\u66fd\u5ddd"},"geometry":{"type":"LineString","coordinates":[[136.7152,35.1013],[136.7176,35.094],[136.7209,35.0773],[136.7242,35.0695],[136.7523,35.0245],[136.7378,35.0456],[136.7242,35.0695],[136.7209,35.0773],[136.7152,35.1013]]}},{"type":"Feature","properties":{"kind":"river","name":"\u6728\u66fd\u5ddd"},"geometry":{"type":"LineString","coordinates":[[136.8691,35.3718],[136.8323,35.3565],[136.8013,35.3605],[136.7866,35.3686]]}},{"type":"Feature","properties":{"kind":"river","name":"\u6728\u66fd\u5ddd"},"geometry":{"type":"LineString","coordinates":[[136.8691,35.3718],[136.8503,35.3741],[136.8147,35.367],[136.7871,35.3686]]}},{"type":"Feature","properties":{"kind":"river","name":"\u6728\u66fd\u5ddd"},"geometry":{"type":"LineString","coordinates":[[136.996,35.4242],[136.9645,35.4212],[136.961,35.415],[136.961,35.3993],[136.9396,35.3905]]}},{"type":"Feature","properties":{"kind":"river","name":"\u6728\u66fd\u5ddd"},"geometry":{"type":"LineString","coordinates":[[137.1019,35.4642],[137.0849,35.4538],[137.0823,35.4447],[137.0769,35.4403],[137.0536,35.4453],[137.0334,35.4367],[137.0158,35.4362],[137.007,35.4322]]}},{"type":"Feature","properties":{"kind":"river","name":"\u6728\u66fd\u5ddd"},"geometry":{"type":"LineString","coordinates":[[137.2933,35.4584],[137.2873,35.4547],[137.2848,35.4483],[137.2721,35.4518],[137.2618,35.4643],[137.247,35.4641],[137.2364,35.4572],[137.2318,35.4642],[137.2324,35.4713],[137.2277,35.473],[137.2212,35.4694],[137.2145,35.4747],[137.2045,35.4696],[137.1946,35.4736],[137.1834,35.4726],[137.1626,35.4641],[137.1561,35.4767],[137.1408,35.4709],[137.1366,35.476],[137.1283,35.4761],[137.122,35.4705],[137.1115,35.4722],[137.1048,35.4657]]}},{"type":"Feature","properties":{"kind":"river","name":"\u6728\u66fd\u5ddd"},"geometry":{"type":"LineString","coordinates":[[137.4876,35.5112],[137.4564,35.5059],[137.4366,35.5061],[137.4265,35.4989],[137.4248,35.4905],[137.4181,35.49],[137.403,35.4815],[137.3643,35.4768],[137.3524,35.4726],[137.3353,35.4789],[137.3198,35.4773],[137.3102,35.4658],[137.295,35.4607]]}},{"type":"Feature","properties":{"kind":"river","name":"\u6728\u66fd\u5ddd"},"geometry":{"type":"LineString","coordinates":[[137.7707,35.9219],[137.7684,35.9096],[137.7708,35.9044],[137.7752,35.9029],[137.7738,35.8986],[137.7681,35.8992],[137.7617,35.8887],[137.7454,35.8751],[137.7285,35.8688],[137.7178,35.8591],[137.7102,35.8571],[137.7078,35.8527],[137.6967,35.8506],[137.6792,35.8299],[137.6828,35.8272],[137.6791,35.8223],[137.6806,35.8147],[137.6899,35.8001],[137.6878,35.7931],[137.6916,35.7893],[137.6904,35.7779],[137.7001,35.7722],[137.6985,35.7658],[137.7082,35.7596],[137.7074,35.754],[137.7153,35.739],[137.7111,35.7298],[137.7138,35.7241],[137.6924,35.6978],[137.6728,35.6945],[137.6678,35.6883],[137.6586,35.6844],[137.639,35.6808],[137.6251,35.6703],[137.6165,35.645],[137.6124,35.641],[137.617,35.6241],[137.6133,35.6219],[137.6141,35.6157],[137.6091,35.6097],[137.6064,35.5973],[137.5993,35.595],[137.5932,35.5864],[137.5898,35.5888],[137.5767,35.5881]]}},{"type":"Feature","properties":{"kind":"river","name":"Kiso River"},"geometry":{"type":"LineString","coordinates":[[136.7871,35.3686],[136.7734,35.3703],[136.7674,35.3677],[136.7593,35.3585],[136.7237,35.2932],[136.7046,35.2764]]}},{"type":"Feature","properties":{"kind":"river","name":"Kiso River"},"geometry":{"type":"LineString","coordinates":[[137.5767,35.5881],[137.5644,35.5849],[137.5504,35.5877],[137.5328,35.583],[137.539,35.575],[137.5334,35.5633],[137.5418,35.5542],[137.5405,35.5444],[137.533,35.5403],[137.537,35.5379],[137.5335,35.5282],[137.51,35.513],[137.4876,35.5112]]}},{"type":"Feature","properties":{"kind":"river","name":"Shinano River"},"geometry":{"type":"LineString","coordinates":[[138.5854,36.9887],[138.5878,36.9932],[138.5986,36.9986],[138.6096,36.9935],[138.6159,36.9961],[138.6156,37.0019],[138.64,37.0042],[138.6382,37.015],[138.6437,37.0249],[138.6613,37.0262],[138.6636,37.0315],[138.661,37.0395],[138.6727,37.0479],[138.6841,37.0513],[138.6842,37.0581],[138.6938,37.0667],[138.7097,37.0667],[138.7127,37.0737],[138.7103,37.0803],[138.7182,37.0953],[138.7188,37.1043],[138.7319,37.1185],[138.7335,37.1328],[138.7438,37.1479],[138.7667,37.1673],[138.7715,37.1836],[138.7703,37.2031],[138.7808,37.2249],[138.779,37.2389],[138.7992,37.2472],[138.8096,37.2464],[138.8146,37.2591],[138.8217,37.2646],[138.8306,37.2628],[138.8333,37.2536],[138.8386,37.2528],[138.8413,37.2631],[138.8491,37.2641],[138.8521,37.2688],[138.8477,37.2774],[138.8324,37.2775],[138.831,37.2811],[138.8365,37.2835],[138.8367,37.2874],[138.8134,37.2931],[138.8016,37.3068],[138.8054,37.3156],[138.8259,37.337],[138.8234,37.3531],[138.8124,37.3701],[138.811,37.4015],[138.8179,37.4096],[138.8237,37.4373],[138.831,37.4431],[138.8353,37.4545],[138.8419,37.4577],[138.8475,37.4664],[138.8474,37.4858],[138.8508,37.4924],[138.8431,37.5091],[138.8441,37.5307],[138.823,37.5475],[138.8208,37.5579]]}},{"type":"Feature","properties":{"kind":"river","name":"Shinano River"},"geometry":{"type":"LineString","coordinates":[[138.8295,37.5818],[138.8355,37.601],[138.8678,37.6218],[138.9034,37.6238],[138.9258,37.6309],[138.9439,37.6302],[138.9478,37.6356],[138.9449,37.6439],[138.9557,37.6508],[138.9582,37.6601],[138.9775,37.6679],[139.0074,37.6698],[139.0096,37.6759],[138.999,37.6782],[138.9985,37.6845],[139.0048,37.687],[139.0208,37.6847],[139.0307,37.6896],[139.0346,37.7047],[139.0426,37.7107],[139.0472,37.7193],[139.0618,37.7281],[139.0617,37.7378],[139.0675,37.7496],[139.0638,37.7612],[139.0716,37.7711],[139.058,37.7854],[139.0633,37.7955],[139.0653,37.8107],[139.0618,37.8201],[139.0615,37.834],[139.053,37.8397],[139.0424,37.8378]]}},{"type":"Feature","properties":{"kind":"river","name":"Shinano River"},"geometry":{"type":"LineString","coordinates":[[139.027,37.8434],[139.0225,37.8537],[139.0238,37.8738],[139.0143,37.8856],[139.0126,37.8962],[139.0215,37.9047],[139.0508,37.9168],[139.0585,37.9269],[139.067,37.9477]]}},{"type":"Feature","properties":{"kind":"river","name":"Yodo River"},"geometry":{"type":"LineString","coordinates":[[135.6781,34.8787],[135.6659,34.8565],[135.6524,34.8479],[135.6392,34.8183],[135.62,34.8087],[135.6089,34.7873],[135.5824,34.7636],[135.5587,34.7531],[135.5513,34.7369],[135.5249,34.733],[135.5082,34.7199],[135.4901,34.7163],[135.452,34.6942],[135.4202,34.6829]]}},{"type":"Feature","properties":{"kind":"river","name":"Chikugo River"},"geometry":{"type":"LineString","coordinates":[[130.3615,33.2144],[130.3515,33.175],[130.3553,33.1406]]}},{"type":"Feature","properties":{"kind":"river","name":"Chikugo River"},"geometry":{"type":"LineString","coordinates":[[130.9148,33.3142],[130.9014,33.3216],[130.894,33.3125],[130.8718,33.3118],[130.8502,33.3371],[130.845,33.3388],[130.8437,33.3336],[130.8283,33.351],[130.8119,33.3605],[130.7854,33.3485],[130.7786,33.3512],[130.7733,33.3606],[130.766,33.3648],[130.7523,33.3641],[130.732,33.3701],[130.7233,33.3701],[130.7065,33.3615],[130.6493,33.3634],[130.6191,33.3441],[130.6007,33.343],[130.5822,33.3273],[130.5524,33.3294],[130.5407,33.3243],[130.5167,33.3318],[130.5054,33.3303],[130.4884,33.3153],[130.4834,33.3055],[130.4603,33.3046],[130.4555,33.3018],[130.456,33.2888],[130.4453,33.2747],[130.428,33.2703],[130.4135,33.2514],[130.3948,33.2471],[130.3848,33.2404]]}},{"type":"Feature","properties":{"kind":"river","name":"Chikugo River"},"geometry":{"type":"LineString","coordinates":[[131.0422,33.1663],[131.0381,33.1699],[131.0365,33.18],[131.0295,33.1866],[131.0157,33.1773],[131.006,33.1779],[130.9942,33.1844],[130.9916,33.19],[130.9949,33.1979],[130.9846,33.2091],[130.9896,33.2134],[130.9917,33.222],[130.9813,33.2337],[130.9867,33.2396],[130.9737,33.2464],[130.9704,33.2582],[130.9639,33.2605],[130.9593,33.2724],[130.9513,33.2775],[130.955,33.2831],[130.9472,33.2904],[130.9515,33.2946],[130.9505,33.2993],[130.9429,33.3061],[130.9288,33.3123]]}},{"type":"Feature","properties":{"kind":"river","name":"Chikugo River"},"geometry":{"type":"LineString","coordinates":[[131.1477,33.077],[131.138,33.0771],[131.1355,33.0812],[131.1323,33.0787],[131.1086,33.086],[131.1049,33.0896],[131.0963,33.0897],[131.097,33.0932],[131.0929,33.0936],[131.0953,33.0951],[131.0921,33.1001],[131.0955,33.1057],[131.086,33.1179],[131.0805,33.1181],[131.0801,33.1219],[131.0701,33.1193],[131.0614,33.1276],[131.0621,33.1312],[131.0533,33.1343],[131.0528,33.1446],[131.0496,33.1477],[131.0525,33.153],[131.0433,33.163]]}}]}