{"type":"FeatureCollection","features":[{"type":"Feature","properties":{"kind":"lake","name":"Lake Constance","local":"Bodensee","km2":528.3},"geometry":{"type":"MultiPolygon","coordinates":[[[[8.8587,47.6577],[8.8704,47.6517],[8.8763,47.654],[8.8829,47.6523],[8.8919,47.6441],[8.9041,47.6434],[8.9166,47.6487],[8.9221,47.6464],[8.9314,47.6524],[8.944,47.6525],[8.958,47.6577],[8.9627,47.6564],[8.9718,47.6601],[8.9729,47.6647],[8.98,47.6652],[8.9814,47.6687],[9.0128,47.6724],[9.0178,47.6755],[9.026,47.6728],[9.037,47.6751],[9.0443,47.6727],[9.0485,47.6746],[9.0687,47.6746],[9.0769,47.6706],[9.0855,47.6754],[9.0963,47.6666],[9.1259,47.6664],[9.1394,47.6631],[9.1487,47.6664],[9.156,47.6657],[9.1608,47.6691],[9.1697,47.6689],[9.1784,47.6657],[9.1778,47.6646],[9.1779,47.6634],[9.1797,47.6607],[9.182,47.6605],[9.1818,47.656],[9.1894,47.6497],[9.2061,47.6442],[9.2118,47.6451],[9.2263,47.6353],[9.2444,47.6323],[9.2961,47.6128],[9.3266,47.5933],[9.3437,47.5858],[9.3456,47.587],[9.3484,47.5839],[9.3821,47.5708],[9.384,47.5704],[9.3843,47.5707],[9.3847,47.5619],[9.3824,47.5645],[9.3842,47.5619],[9.3824,47.562],[9.3802,47.5543],[9.3866,47.5505],[9.3816,47.5477],[9.3867,47.5504],[9.3861,47.5475],[9.3906,47.5433],[9.4053,47.5363],[9.4222,47.5235],[9.4378,47.5186],[9.4395,47.5149],[9.4413,47.5139],[9.4415,47.5136],[9.4416,47.5133],[9.4395,47.5149],[9.4402,47.5125],[9.4379,47.5137],[9.439,47.5124],[9.4351,47.5117],[9.436,47.5064],[9.4458,47.5058],[9.4482,47.5013],[9.4535,47.5002],[9.4518,47.4993],[9.4693,47.4946],[9.4775,47.4896],[9.4793,47.4828],[9.4862,47.4799],[9.4993,47.4781],[9.5308,47.4803],[9.5324,47.4813],[9.5314,47.4827],[9.5325,47.483],[9.533,47.4812],[9.5389,47.482],[9.5442,47.4857],[9.5456,47.491],[9.5481,47.4898],[9.5479,47.4907],[9.547,47.4906],[9.5465,47.4911],[9.5464,47.4914],[9.5549,47.4961],[9.555,47.501],[9.5601,47.5011],[9.5613,47.5042],[9.56,47.4992],[9.5625,47.5042],[9.5624,47.5002],[9.5686,47.5013],[9.5709,47.4953],[9.5863,47.4907],[9.585,47.4885],[9.5857,47.4878],[9.5857,47.489],[9.5866,47.4901],[9.587,47.4877],[9.6028,47.4895],[9.6091,47.4879],[9.6087,47.4907],[9.6132,47.4922],[9.6129,47.4908],[9.6132,47.4906],[9.6157,47.4956],[9.624,47.4945],[9.6336,47.503],[9.6446,47.5071],[9.6472,47.5061],[9.6454,47.5032],[9.6379,47.4991],[9.6407,47.4924],[9.6504,47.4872],[9.6487,47.4902],[9.6546,47.4925],[9.6619,47.4907],[9.6616,47.4886],[9.6676,47.4864],[9.664,47.4882],[9.6642,47.4917],[9.6625,47.492],[9.6622,47.4912],[9.662,47.4912],[9.6626,47.4922],[9.6664,47.4913],[9.668,47.4916],[9.6621,47.4947],[9.6683,47.4945],[9.665,47.4977],[9.6666,47.503],[9.6549,47.5082],[9.6571,47.5108],[9.6497,47.5155],[9.6477,47.5144],[9.6487,47.5162],[9.6433,47.5248],[9.646,47.526],[9.6517,47.5208],[9.6516,47.5177],[9.6615,47.5134],[9.6607,47.5123],[9.6705,47.5056],[9.6724,47.4989],[9.6787,47.4979],[9.6853,47.5018],[9.6787,47.4973],[9.6787,47.4935],[9.681,47.4919],[9.6878,47.4928],[9.6851,47.4968],[9.6853,47.4999],[9.6861,47.5007],[9.6869,47.4953],[9.6882,47.495],[9.6874,47.4973],[9.6892,47.4972],[9.6875,47.4979],[9.6894,47.4976],[9.6898,47.5003],[9.6849,47.5041],[9.6919,47.5066],[9.728,47.5075],[9.7419,47.5044],[9.7458,47.5056],[9.7463,47.5085],[9.7506,47.5085],[9.7538,47.5151],[9.7508,47.5217],[9.7417,47.5296],[9.7415,47.5282],[9.7366,47.5317],[9.73,47.5336],[9.7289,47.5324],[9.7281,47.5329],[9.7274,47.5346],[9.7317,47.5343],[9.7283,47.5346],[9.723,47.5446],[9.7127,47.5505],[9.7044,47.5488],[9.7011,47.5511],[9.6928,47.5497],[9.6829,47.552],[9.6813,47.5486],[9.6915,47.5482],[9.6862,47.5449],[9.6884,47.544],[9.6809,47.5422],[9.6753,47.5458],[9.6804,47.548],[9.6825,47.5525],[9.6794,47.5568],[9.6536,47.5567],[9.6439,47.5613],[9.6393,47.5668],[9.6293,47.5662],[9.6308,47.5694],[9.6275,47.571],[9.6143,47.5697],[9.6067,47.5735],[9.6074,47.5761],[9.6024,47.5841],[9.5963,47.5883],[9.5726,47.5841],[9.5505,47.5878],[9.5298,47.603],[9.5267,47.6154],[9.518,47.6214],[9.5157,47.6339],[9.4953,47.6498],[9.4878,47.6511],[9.4827,47.6487],[9.4859,47.6519],[9.4821,47.6486],[9.4717,47.6513],[9.4628,47.6484],[9.4523,47.655],[9.4354,47.6566],[9.4209,47.6657],[9.4072,47.6683],[9.3927,47.6682],[9.3873,47.6645],[9.3701,47.6653],[9.3675,47.6621],[9.3653,47.6634],[9.3569,47.6601],[9.3492,47.661],[9.3326,47.6667],[9.3237,47.6725],[9.3141,47.673],[9.2896,47.6824],[9.275,47.6915],[9.2655,47.694],[9.2385,47.7113],[9.2274,47.7221],[9.2295,47.7233],[9.2265,47.7233],[9.2287,47.7262],[9.2253,47.7331],[9.2271,47.7357],[9.2252,47.7404],[9.215,47.7457],[9.1924,47.7509],[9.1564,47.7669],[9.1382,47.7702],[9.1245,47.7827],[9.1054,47.793],[9.0871,47.7978],[9.0613,47.8151],[9.055,47.8141],[9.0394,47.8175],[9.0392,47.8134],[9.0345,47.8122],[9.0348,47.8082],[9.0307,47.8054],[9.0478,47.7962],[9.0501,47.7921],[9.0658,47.7802],[9.0797,47.7723],[9.1164,47.7593],[9.1358,47.7471],[9.1491,47.7486],[9.1596,47.7396],[9.1735,47.7345],[9.1812,47.7117],[9.1795,47.7055],[9.1866,47.7028],[9.1875,47.6976],[9.2021,47.6915],[9.2115,47.6822],[9.2133,47.6826],[9.2103,47.6762],[9.2181,47.666],[9.2065,47.663],[9.1912,47.6667],[9.1801,47.6665],[9.1616,47.6717],[9.14,47.6649],[9.1289,47.6673],[9.1259,47.6739],[9.118,47.6788],[9.1143,47.6844],[9.1066,47.6855],[9.1098,47.6869],[9.0917,47.6867],[9.0936,47.6893],[9.1007,47.6871],[9.1038,47.6896],[9.1029,47.6869],[9.1074,47.6871],[9.1047,47.6903],[9.1093,47.69],[9.0994,47.7032],[9.0385,47.7233],[9.0348,47.7268],[9.0236,47.7283],[9.0021,47.7377],[8.996,47.7427],[8.9893,47.7435],[8.9841,47.7421],[8.9833,47.7395],[8.9897,47.7349],[9.0003,47.7339],[9.0022,47.7302],[9.0145,47.7235],[9.0147,47.7197],[9.009,47.7211],[9.0101,47.7233],[9.0054,47.7241],[9.0057,47.7264],[8.9991,47.7254],[8.9762,47.7349],[8.9699,47.7339],[8.9599,47.7372],[8.943,47.734],[8.9397,47.7279],[8.9427,47.7239],[8.9736,47.7111],[8.9976,47.7046],[9.0064,47.6962],[8.9985,47.6869],[8.9913,47.6823],[8.9743,47.6769],[8.9712,47.672],[8.9574,47.6706],[8.9502,47.6675],[8.9391,47.6617],[8.9381,47.6591],[8.925,47.6603],[8.895,47.6521],[8.879,47.6566],[8.8587,47.6577]]]]}},{"type":"Feature","properties":{"kind":"lake","name":"Lake Neuch\u00e2tel","local":"Lac de Neuch\u00e2tel","km2":213.3},"geometry":{"type":"MultiPolygon","coordinates":[[[[6.6346,46.7995],[6.6382,46.7933],[6.6453,46.7898],[6.6436,46.7884],[6.6534,46.7846],[6.6675,46.7874],[6.6639,46.786],[6.6655,46.7859],[6.7026,46.8001],[6.7015,46.8023],[6.7037,46.8007],[6.7163,46.8059],[6.7291,46.8067],[6.7274,46.8081],[6.7371,46.8055],[6.7411,46.808],[6.7472,46.8031],[6.7598,46.8038],[6.7806,46.8177],[6.7811,46.8163],[6.7818,46.8191],[6.7865,46.818],[6.7855,46.8215],[6.7908,46.823],[6.7873,46.8226],[6.8013,46.8328],[6.8006,46.8335],[6.8151,46.8407],[6.8222,46.8412],[6.8346,46.8462],[6.8393,46.8496],[6.8383,46.8497],[6.8364,46.8504],[6.8368,46.8518],[6.84,46.8505],[6.8399,46.8513],[6.8378,46.852],[6.8373,46.8523],[6.837,46.8525],[6.837,46.8526],[6.8439,46.8522],[6.8429,46.8538],[6.8472,46.8571],[6.8583,46.8599],[6.8593,46.8632],[6.882,46.8783],[6.8846,46.8831],[6.8919,46.8872],[6.8914,46.8895],[6.8987,46.892],[6.8999,46.8957],[6.8958,46.9007],[6.9001,46.8958],[6.901,46.8973],[6.8968,46.9005],[6.8985,46.9004],[6.9011,46.8973],[6.9008,46.8966],[6.9014,46.8964],[6.9228,46.9062],[6.9208,46.9027],[6.9214,46.9022],[6.9258,46.9059],[6.9282,46.9045],[6.9331,46.9068],[6.9338,46.9074],[6.9283,46.9092],[6.9528,46.9217],[6.9519,46.9226],[6.9533,46.9225],[6.9529,46.9257],[6.9532,46.9261],[6.9543,46.9272],[6.9539,46.9244],[6.9601,46.9262],[6.9794,46.9379],[6.9861,46.9454],[7.0131,46.956],[7.0155,46.9575],[7.0139,46.9593],[7.0149,46.9599],[7.0183,46.9585],[7.0268,46.9632],[7.0362,46.9724],[7.0387,46.9787],[7.0279,46.981],[7.0386,46.9796],[7.0388,46.9801],[7.0368,46.9805],[7.037,46.9809],[7.0501,46.9867],[7.0363,47.0023],[7.0264,47.0054],[7.0157,46.9975],[7.0213,47.0023],[7.0148,46.998],[7.0201,47.0047],[7.0188,47.005],[7.0162,47.0049],[7.016,47.0043],[7.0156,47.0049],[7.0089,47.002],[6.9959,47.0047],[6.9915,47.0104],[6.9869,47.0105],[6.9869,47.0089],[6.9836,47.0111],[6.9621,47.0032],[6.9557,46.9962],[6.9475,46.9958],[6.9489,46.9939],[6.9361,46.9896],[6.9341,46.9913],[6.9325,46.9905],[6.9342,46.9896],[6.9301,46.9886],[6.9242,46.9898],[6.9075,46.9808],[6.8836,46.9766],[6.8802,46.9725],[6.8736,46.9704],[6.8746,46.958],[6.8711,46.9451],[6.8525,46.9382],[6.8471,46.9386],[6.8402,46.9335],[6.8372,46.9257],[6.8308,46.9268],[6.8051,46.9158],[6.7886,46.9029],[6.7782,46.8914],[6.7709,46.8908],[6.7649,46.8854],[6.7611,46.8775],[6.7565,46.8741],[6.7522,46.8635],[6.7301,46.8514],[6.7166,46.8474],[6.7063,46.8375],[6.6872,46.8297],[6.6771,46.8207],[6.6595,46.8158],[6.6416,46.8041],[6.6368,46.8038],[6.6346,46.7995]]]]}},{"type":"Feature","properties":{"kind":"lake","name":"Lake Lucerne","local":"Vierwaldst\u00e4ttersee","km2":113.0},"geometry":{"type":"MultiPolygon","coordinates":[[[[8.2788,46.9552],[8.2862,46.9537],[8.2885,46.9565],[8.2881,46.9531],[8.2911,46.9561],[8.2903,46.9532],[8.2958,46.9545],[8.2927,46.953],[8.2957,46.9535],[8.2944,46.952],[8.2969,46.951],[8.2989,46.9526],[8.2974,46.9531],[8.2985,46.9529],[8.2995,46.9523],[8.3339,46.9677],[8.3375,46.972],[8.3327,46.9766],[8.3331,46.9793],[8.3462,46.9821],[8.3513,46.9854],[8.3554,46.9929],[8.3627,46.9963],[8.3683,47.0036],[8.458,47.0004],[8.4629,46.9975],[8.4186,46.9872],[8.4176,46.9822],[8.4197,46.9791],[8.4259,46.9789],[8.4241,46.9773],[8.4266,46.9751],[8.4408,46.9748],[8.4523,46.9711],[8.466,46.9721],[8.4792,46.964],[8.4953,46.9621],[8.5076,46.9622],[8.5268,46.969],[8.548,46.9727],[8.5697,46.9827],[8.5891,46.988],[8.5951,46.9859],[8.5967,46.9828],[8.5918,46.975],[8.5944,46.9675],[8.5785,46.9323],[8.58,46.9285],[8.5972,46.9188],[8.592,46.9138],[8.5919,46.9055],[8.5952,46.898],[8.5938,46.8956],[8.5993,46.8895],[8.604,46.8891],[8.6079,46.8937],[8.6079,46.8941],[8.6064,46.8944],[8.6094,46.8956],[8.6097,46.8985],[8.6217,46.8999],[8.6209,46.9021],[8.6241,46.9021],[8.625,46.9047],[8.6212,46.9118],[8.6236,46.9171],[8.6207,46.9213],[8.6115,46.926],[8.6107,46.9291],[8.6155,46.9407],[8.62,46.9447],[8.6183,46.9493],[8.6208,46.9525],[8.6144,46.9592],[8.6104,46.973],[8.6117,46.9875],[8.6081,46.9926],[8.5921,46.9954],[8.5858,47.0012],[8.5734,46.9993],[8.5489,46.989],[8.5345,46.9883],[8.5169,46.994],[8.4928,46.9907],[8.4843,46.9944],[8.4735,46.9954],[8.4853,47.0026],[8.4818,47.0139],[8.4734,47.0169],[8.4679,47.0236],[8.4541,47.0238],[8.4458,47.0296],[8.4358,47.0321],[8.4207,47.0286],[8.4094,47.03],[8.4014,47.0262],[8.4009,47.0283],[8.3967,47.0271],[8.3956,47.029],[8.4014,47.0355],[8.4181,47.0442],[8.427,47.0524],[8.4268,47.0591],[8.4305,47.0624],[8.4324,47.0727],[8.435,47.0772],[8.4395,47.0788],[8.435,47.0822],[8.4189,47.0663],[8.4133,47.0635],[8.4052,47.0633],[8.3953,47.0536],[8.3853,47.0494],[8.3625,47.0333],[8.3529,47.0343],[8.3536,47.0381],[8.3473,47.045],[8.3357,47.0494],[8.3324,47.0544],[8.3191,47.0549],[8.3118,47.0544],[8.3093,47.0533],[8.3092,47.0513],[8.3124,47.0514],[8.3163,47.0474],[8.3234,47.0457],[8.3207,47.0454],[8.3251,47.0424],[8.3304,47.0429],[8.3314,47.037],[8.3384,47.0328],[8.3396,47.0308],[8.3364,47.0237],[8.3426,47.018],[8.3391,47.0164],[8.3421,47.0139],[8.3417,47.0057],[8.3292,47.0004],[8.3217,47.0037],[8.3167,47.0117],[8.3065,47.0087],[8.3057,47.0059],[8.3117,47.0012],[8.317,46.9898],[8.3127,46.9865],[8.3123,46.9795],[8.3286,46.9801],[8.3312,46.9792],[8.331,46.9745],[8.3161,46.9696],[8.2946,46.9663],[8.2941,46.9636],[8.2788,46.9552]]]]}},{"type":"Feature","properties":{"kind":"lake","name":"Lake Zurich","local":"Z\u00fcrichsee","km2":87.2},"geometry":{"type":"MultiPolygon","coordinates":[[[[8.5349,47.3487],[8.5396,47.3377],[8.5461,47.3319],[8.5564,47.3155],[8.5602,47.3037],[8.5735,47.2909],[8.5816,47.2799],[8.584,47.2727],[8.5916,47.2643],[8.6228,47.2524],[8.635,47.2495],[8.643,47.2519],[8.6515,47.2493],[8.6529,47.2459],[8.66,47.2418],[8.6619,47.2372],[8.6739,47.2314],[8.681,47.2248],[8.7005,47.2166],[8.7164,47.2012],[8.7297,47.2026],[8.7305,47.2047],[8.7318,47.204],[8.7319,47.2055],[8.7336,47.2053],[8.7357,47.2085],[8.7376,47.2095],[8.7362,47.2084],[8.742,47.2097],[8.7433,47.2079],[8.7369,47.2064],[8.7384,47.2048],[8.7445,47.2076],[8.7552,47.2082],[8.7738,47.2056],[8.7751,47.2083],[8.7905,47.2063],[8.7931,47.2133],[8.8076,47.2191],[8.8066,47.2146],[8.7991,47.2124],[8.7985,47.2057],[8.7938,47.2066],[8.7928,47.2039],[8.7994,47.2028],[8.7991,47.2048],[8.8134,47.2007],[8.8182,47.1949],[8.8318,47.1953],[8.8422,47.1913],[8.8519,47.194],[8.8522,47.1989],[8.8543,47.1985],[8.851,47.2032],[8.8526,47.2026],[8.8551,47.2037],[8.8567,47.202],[8.8565,47.2038],[8.8596,47.2045],[8.8577,47.2018],[8.8606,47.2035],[8.8606,47.2017],[8.8615,47.2049],[8.8635,47.2015],[8.8635,47.2053],[8.8754,47.2066],[8.8757,47.205],[8.8873,47.2088],[8.8897,47.2082],[8.8874,47.2079],[8.8889,47.2049],[8.8943,47.2049],[8.8908,47.2082],[8.897,47.2062],[8.896,47.2041],[8.9319,47.212],[8.9341,47.2154],[8.9344,47.2137],[8.9366,47.2148],[8.935,47.2133],[8.938,47.2137],[8.9446,47.2171],[8.9373,47.2169],[8.9416,47.2183],[8.9396,47.2215],[8.9478,47.2232],[8.9194,47.2259],[8.918,47.2251],[8.921,47.2249],[8.8775,47.2156],[8.8588,47.2221],[8.8497,47.2218],[8.8483,47.2181],[8.8516,47.2173],[8.8516,47.2163],[8.8465,47.2179],[8.8453,47.2162],[8.8473,47.2158],[8.8472,47.2156],[8.8434,47.2146],[8.8425,47.2164],[8.8318,47.2168],[8.8256,47.222],[8.8135,47.2235],[8.8152,47.2253],[8.8112,47.2269],[8.8179,47.2294],[8.8179,47.235],[8.8003,47.2379],[8.7992,47.2398],[8.7874,47.2343],[8.7343,47.2337],[8.7161,47.2392],[8.7075,47.2462],[8.6968,47.249],[8.6966,47.2493],[8.6947,47.2506],[8.6941,47.2507],[8.6931,47.2515],[8.6894,47.2525],[8.6879,47.2548],[8.6764,47.2592],[8.6631,47.2619],[8.6603,47.2644],[8.6533,47.264],[8.6478,47.2675],[8.6384,47.2677],[8.6364,47.2702],[8.6284,47.2714],[8.6155,47.2777],[8.5793,47.3136],[8.5766,47.3175],[8.5783,47.3186],[8.5783,47.3202],[8.5651,47.3453],[8.5588,47.3517],[8.5503,47.3533],[8.5441,47.3668],[8.537,47.3638],[8.5349,47.3487]]]]}},{"type":"Feature","properties":{"kind":"lake","name":"Thunersee","local":"Thunersee","km2":47.7},"geometry":{"type":"MultiPolygon","coordinates":[[[[7.6278,46.7243],[7.6294,46.7207],[7.6318,46.7204],[7.6291,46.718],[7.6293,46.7178],[7.6304,46.7171],[7.6291,46.718],[7.632,46.7204],[7.6394,46.7201],[7.6364,46.7168],[7.6428,46.7194],[7.6447,46.7168],[7.6411,46.7162],[7.644,46.7156],[7.6419,46.7151],[7.644,46.7152],[7.6438,46.7111],[7.6595,46.7034],[7.664,46.6969],[7.6862,46.6931],[7.6899,46.6884],[7.6859,46.6877],[7.7036,46.6827],[7.7035,46.6737],[7.7175,46.6685],[7.7237,46.668],[7.7289,46.6642],[7.7414,46.6625],[7.7596,46.6545],[7.7874,46.6578],[7.8041,46.6645],[7.8156,46.6598],[7.8202,46.6602],[7.8269,46.6636],[7.8268,46.6659],[7.831,46.6684],[7.8275,46.6671],[7.8299,46.6692],[7.8286,46.6712],[7.8312,46.6715],[7.8321,46.6721],[7.8222,46.6732],[7.8165,46.6791],[7.813,46.6786],[7.8142,46.6807],[7.8115,46.6823],[7.8003,46.6849],[7.7956,46.6839],[7.7919,46.6858],[7.7765,46.6817],[7.7509,46.6813],[7.7463,46.6841],[7.7429,46.694],[7.7382,46.6948],[7.7358,46.7002],[7.7248,46.7074],[7.7018,46.7116],[7.6886,46.7164],[7.6767,46.7275],[7.6745,46.728],[7.6709,46.7273],[7.6676,46.7308],[7.6629,46.7316],[7.6563,46.7366],[7.6552,46.7365],[7.6548,46.7366],[7.6543,46.7369],[7.656,46.7368],[7.6511,46.7417],[7.6406,46.745],[7.6328,46.7569],[7.6325,46.7561],[7.6345,46.7517],[7.6309,46.7545],[7.6344,46.7484],[7.6385,46.7462],[7.629,46.7422],[7.6334,46.7417],[7.6315,46.7415],[7.6315,46.7409],[7.6286,46.7408],[7.6286,46.7399],[7.6337,46.7403],[7.6303,46.7365],[7.6324,46.7356],[7.6301,46.7343],[7.6326,46.7343],[7.63,46.7341],[7.6303,46.7315],[7.629,46.7315],[7.6287,46.7309],[7.6283,46.7312],[7.6293,46.7278],[7.6307,46.728],[7.6278,46.7243]]]]}},{"type":"Feature","properties":{"kind":"lake","name":"Lake Bienne","local":"Bielersee / Lac de Bienne","km2":39.1},"geometry":{"type":"MultiPolygon","coordinates":[[[[7.0725,47.0546],[7.0766,47.0503],[7.0779,47.0512],[7.0786,47.0516],[7.0774,47.0495],[7.0824,47.0459],[7.0946,47.0462],[7.098,47.0473],[7.0973,47.0493],[7.0979,47.0495],[7.0996,47.0466],[7.0986,47.0488],[7.1038,47.0487],[7.1259,47.0625],[7.1348,47.0647],[7.14,47.0761],[7.1422,47.0767],[7.1491,47.0732],[7.1474,47.0704],[7.1338,47.0597],[7.1007,47.0441],[7.1026,47.0445],[7.1063,47.039],[7.1157,47.0375],[7.1337,47.0412],[7.1493,47.048],[7.1627,47.0497],[7.1751,47.0605],[7.1777,47.06],[7.1755,47.0621],[7.1771,47.0654],[7.1805,47.0618],[7.1909,47.0706],[7.1963,47.0805],[7.2024,47.0852],[7.2038,47.094],[7.2127,47.1048],[7.2173,47.107],[7.2214,47.1177],[7.2331,47.1282],[7.2352,47.1278],[7.2313,47.1295],[7.2364,47.1303],[7.2326,47.1347],[7.2217,47.1311],[7.1938,47.1124],[7.1835,47.1082],[7.1766,47.1008],[7.1173,47.0758],[7.1074,47.0653],[7.0758,47.0582],[7.0725,47.0546]]]]}},{"type":"Feature","properties":{"kind":"lake","name":"Zugersee","local":"Zugersee","km2":38.1},"geometry":{"type":"MultiPolygon","coordinates":[[[[8.4529,47.1716],[8.4613,47.1599],[8.4597,47.158],[8.4639,47.1563],[8.4616,47.1548],[8.4628,47.1512],[8.4576,47.1478],[8.4582,47.1414],[8.4658,47.1384],[8.4704,47.1412],[8.4729,47.1396],[8.4639,47.1301],[8.4652,47.1203],[8.4736,47.1145],[8.4832,47.1155],[8.4881,47.1127],[8.4866,47.1095],[8.4763,47.1061],[8.4729,47.1016],[8.4644,47.0975],[8.4654,47.0931],[8.4712,47.0873],[8.4772,47.0858],[8.4915,47.0757],[8.5087,47.0685],[8.5143,47.0615],[8.5207,47.0623],[8.5281,47.0717],[8.5223,47.0841],[8.5236,47.0893],[8.5081,47.1061],[8.5036,47.108],[8.4948,47.1236],[8.506,47.1363],[8.5049,47.1472],[8.5109,47.1541],[8.5097,47.1562],[8.5123,47.1594],[8.514,47.1697],[8.4925,47.1775],[8.481,47.1759],[8.4812,47.1779],[8.478,47.1777],[8.4784,47.182],[8.4758,47.1829],[8.4759,47.1813],[8.4685,47.18],[8.4679,47.1775],[8.4617,47.1799],[8.4529,47.1716]]]]}},{"type":"Feature","properties":{"kind":"lake","name":"Lake Brienz","local":"Brienzersee","km2":29.6},"geometry":{"type":"MultiPolygon","coordinates":[[[[7.8847,46.6933],[7.8981,46.6915],[7.8985,46.6883],[7.9186,46.688],[7.9387,46.697],[7.9506,46.7068],[7.9601,46.7084],[7.9657,46.7135],[7.9666,46.7111],[7.9734,46.7134],[8.0231,46.7371],[8.0362,46.7402],[8.0482,46.7389],[8.0475,46.7426],[8.0498,46.7447],[8.0469,46.7482],[8.0493,46.7487],[8.0493,46.7497],[8.042,46.7546],[8.0306,46.7537],[8.0161,46.7579],[7.9914,46.753],[7.9729,46.7444],[7.9687,46.7383],[7.9589,46.7357],[7.9572,46.7326],[7.9526,46.7317],[7.9324,46.7177],[7.9142,46.7076],[7.9017,46.704],[7.8847,46.6933]]]]}},{"type":"Feature","properties":{"kind":"lake","name":"Walensee","local":"Walensee","km2":23.9},"geometry":{"type":"MultiPolygon","coordinates":[[[[9.0983,47.1338],[9.1078,47.1279],[9.1367,47.1259],[9.1842,47.1153],[9.2067,47.113],[9.2157,47.1155],[9.2253,47.1116],[9.2505,47.1133],[9.2558,47.1165],[9.2783,47.1129],[9.2962,47.1151],[9.2991,47.1163],[9.2981,47.1207],[9.3027,47.1271],[9.2997,47.1288],[9.2502,47.1305],[9.2128,47.1288],[9.1532,47.1357],[9.1458,47.1344],[9.1438,47.137],[9.1231,47.1395],[9.1144,47.1395],[9.1056,47.1335],[9.1006,47.1354],[9.0983,47.1338]]]]}},{"type":"Feature","properties":{"kind":"lake","name":"Lake Morat","local":"Lac de Morat / Murtensee","km2":22.4},"geometry":{"type":"MultiPolygon","coordinates":[[[[7.0317,46.9197],[7.0341,46.9205],[7.0339,46.916],[7.0462,46.906],[7.0646,46.9051],[7.0847,46.913],[7.0892,46.9174],[7.0893,46.9218],[7.0986,46.9208],[7.1147,46.9293],[7.1337,46.9448],[7.1225,46.9563],[7.118,46.9553],[7.1183,46.9574],[7.1136,46.9579],[7.0666,46.942],[7.0317,46.9197]]]]}},{"type":"Feature","properties":{"kind":"lake","name":"Obersee","local":"Obersee","km2":20.4},"geometry":{"type":"MultiPolygon","coordinates":[[[[8.7928,47.2041],[8.7994,47.2028],[8.7991,47.2048],[8.8134,47.2007],[8.8182,47.1949],[8.8318,47.1953],[8.8447,47.1916],[8.8519,47.194],[8.8522,47.1989],[8.8543,47.1985],[8.851,47.2032],[8.8526,47.2026],[8.8551,47.2037],[8.8567,47.202],[8.8565,47.2038],[8.8596,47.2045],[8.8577,47.2018],[8.8606,47.2035],[8.8606,47.2017],[8.8615,47.2049],[8.8635,47.2015],[8.8635,47.2053],[8.8754,47.2066],[8.8757,47.205],[8.8873,47.2088],[8.8897,47.2082],[8.8874,47.2079],[8.8889,47.2049],[8.8943,47.2049],[8.8908,47.2082],[8.897,47.2062],[8.896,47.2041],[8.8978,47.206],[8.9206,47.2093],[8.9342,47.2129],[8.9341,47.2154],[8.9344,47.2137],[8.9366,47.2148],[8.9354,47.2133],[8.9419,47.2153],[8.9446,47.2171],[8.9369,47.2177],[8.9412,47.2179],[8.9396,47.2215],[8.9461,47.2215],[8.9479,47.2243],[8.9194,47.2259],[8.918,47.2251],[8.921,47.2249],[8.8775,47.2156],[8.8588,47.2221],[8.8497,47.2218],[8.8483,47.2181],[8.8516,47.2173],[8.8516,47.2163],[8.8465,47.2179],[8.8453,47.2162],[8.8473,47.2158],[8.8472,47.2156],[8.8434,47.2146],[8.8425,47.2164],[8.8318,47.2168],[8.8256,47.222],[8.8146,47.2239],[8.8076,47.2191],[8.8057,47.2139],[8.7991,47.2124],[8.7985,47.2057],[8.7938,47.2066],[8.7928,47.2041]]]]}},{"type":"Feature","properties":{"kind":"lake","name":"Lake Sempach","local":"Sempachersee","km2":14.2},"geometry":{"type":"MultiPolygon","coordinates":[[[[8.1213,47.1623],[8.1237,47.16],[8.1241,47.1516],[8.1311,47.1451],[8.1408,47.1374],[8.1725,47.12],[8.1818,47.118],[8.1918,47.128],[8.1843,47.1402],[8.1546,47.1563],[8.1397,47.1684],[8.1301,47.1726],[8.1274,47.1709],[8.1242,47.1738],[8.1221,47.1724],[8.1263,47.1699],[8.1232,47.17],[8.1244,47.1685],[8.1213,47.1623]]]]}},{"type":"Feature","properties":{"kind":"lake","name":"Sihlsee","local":"Sihlsee","km2":10.5},"geometry":{"type":"MultiPolygon","coordinates":[[[[8.7578,47.1401],[8.7642,47.1392],[8.7753,47.1238],[8.7755,47.1176],[8.7852,47.1134],[8.7799,47.107],[8.7817,47.1038],[8.7947,47.0988],[8.8021,47.0903],[8.8111,47.0892],[8.8088,47.0851],[8.8107,47.0867],[8.8134,47.0814],[8.8112,47.0864],[8.8169,47.0871],[8.8188,47.0918],[8.7993,47.1011],[8.8001,47.1073],[8.7953,47.1161],[8.7968,47.1235],[8.7928,47.1274],[8.7916,47.1326],[8.786,47.1325],[8.7919,47.137],[8.791,47.1382],[8.7917,47.1389],[8.7918,47.1398],[8.7914,47.1407],[8.7907,47.139],[8.7874,47.1428],[8.7908,47.1451],[8.7897,47.1509],[8.7855,47.1497],[8.7805,47.1546],[8.7775,47.1501],[8.7664,47.1501],[8.7578,47.1401]]]]}},{"type":"Feature","properties":{"kind":"lake","name":"Lake Hallwil","local":"Hallwilersee","km2":10.1},"geometry":{"type":"MultiPolygon","coordinates":[[[[8.1983,47.3092],[8.2067,47.2763],[8.2208,47.2502],[8.2245,47.2456],[8.2277,47.246],[8.2297,47.2505],[8.2272,47.2522],[8.233,47.2644],[8.2189,47.2949],[8.2206,47.2958],[8.2166,47.3085],[8.2091,47.3172],[8.2025,47.3193],[8.1983,47.3092]]]]}},{"type":"Feature","properties":{"kind":"lake","name":"Lac de Joux","local":"Lac de Joux","km2":8.7},"geometry":{"type":"MultiPolygon","coordinates":[[[[6.241,46.6157],[6.2415,46.6128],[6.2449,46.6113],[6.2634,46.6192],[6.2681,46.6237],[6.2786,46.6259],[6.2806,46.6295],[6.3074,46.6427],[6.3172,46.6504],[6.3229,46.6513],[6.3239,46.6587],[6.3308,46.6657],[6.3253,46.6678],[6.3078,46.6555],[6.2575,46.6293],[6.252,46.6228],[6.241,46.6157]]]]}},{"type":"Feature","properties":{"kind":"lake","name":"Lac de la Gruy\u00e8re","local":"Lac de la Gruy\u00e8re","km2":8.6},"geometry":{"type":"MultiPolygon","coordinates":[[[[7.0774,46.6601],[7.079,46.66],[7.0812,46.662],[7.0823,46.6651],[7.087,46.6649],[7.0896,46.6691],[7.0963,46.6663],[7.0902,46.6603],[7.0951,46.655],[7.0911,46.6416],[7.0922,46.6295],[7.0967,46.6262],[7.0929,46.6236],[7.098,46.6164],[7.097,46.614],[7.1014,46.6147],[7.1018,46.6137],[7.1062,46.6107],[7.1024,46.614],[7.1056,46.6145],[7.1052,46.6312],[7.1019,46.6357],[7.1008,46.6435],[7.0979,46.6456],[7.0983,46.6532],[7.0961,46.6553],[7.0985,46.6557],[7.0972,46.6615],[7.1038,46.6628],[7.0991,46.6728],[7.1043,46.677],[7.1066,46.6747],[7.1108,46.6797],[7.1079,46.6843],[7.1113,46.6818],[7.1111,46.6834],[7.1152,46.6824],[7.1213,46.6876],[7.1202,46.6899],[7.1155,46.6862],[7.1113,46.6873],[7.1109,46.6931],[7.1041,46.6959],[7.1039,46.7004],[7.0993,46.7015],[7.0976,46.707],[7.1007,46.71],[7.1063,46.7094],[7.1143,46.7178],[7.1111,46.7188],[7.1042,46.7115],[7.0994,46.712],[7.0969,46.7091],[7.0872,46.7061],[7.097,46.7038],[7.0967,46.7016],[7.0923,46.7004],[7.0924,46.6961],[7.0886,46.6944],[7.0983,46.6931],[7.0997,46.6903],[7.1056,46.6935],[7.1065,46.6922],[7.1042,46.6878],[7.0926,46.6822],[7.0879,46.6765],[7.0855,46.677],[7.0881,46.6752],[7.087,46.6729],[7.0834,46.6738],[7.086,46.6728],[7.0846,46.6674],[7.0793,46.6669],[7.0814,46.6664],[7.0805,46.6618],[7.0774,46.6601]]]]}},{"type":"Feature","properties":{"kind":"lake","name":"Greifensee","local":"Greifensee","km2":8.1},"geometry":{"type":"MultiPolygon","coordinates":[[[[8.6522,47.3675],[8.6541,47.3604],[8.6639,47.3538],[8.668,47.3477],[8.6756,47.3457],[8.6856,47.3345],[8.6901,47.3227],[8.6964,47.3211],[8.7003,47.3265],[8.7064,47.3275],[8.7063,47.3339],[8.6915,47.3409],[8.6897,47.352],[8.6812,47.362],[8.6755,47.3636],[8.6613,47.3736],[8.6536,47.3714],[8.6545,47.368],[8.6522,47.3675]]]]}},{"type":"Feature","properties":{"kind":"lake","name":"Sarnersee","local":"Sarnersee","km2":7.3},"geometry":{"type":"MultiPolygon","coordinates":[[[[8.1889,46.854],[8.2004,46.848],[8.2003,46.8457],[8.2039,46.8458],[8.2184,46.861],[8.2412,46.8729],[8.2435,46.8803],[8.2408,46.8816],[8.244,46.8864],[8.2408,46.8899],[8.2341,46.8891],[8.2256,46.878],[8.1964,46.866],[8.1889,46.854]]]]}},{"type":"Feature","properties":{"kind":"lake","name":"\u00c4gerisee","local":"\u00c4gerisee","km2":7.2},"geometry":{"type":"MultiPolygon","coordinates":[[[[8.5886,47.1375],[8.5972,47.1291],[8.5975,47.1269],[8.5917,47.1228],[8.624,47.1146],[8.6244,47.1077],[8.6296,47.1058],[8.6307,47.1024],[8.6402,47.1039],[8.6432,47.1142],[8.6299,47.1296],[8.62,47.1332],[8.613,47.1316],[8.6046,47.1373],[8.5886,47.1375]]]]}},{"type":"Feature","properties":{"kind":"lake","name":"Baldeggersee","local":"Baldeggersee","km2":5.1},"geometry":{"type":"MultiPolygon","coordinates":[[[[8.2433,47.2085],[8.2561,47.1948],[8.2628,47.1836],[8.2712,47.1775],[8.2722,47.1807],[8.2759,47.181],[8.2762,47.1878],[8.2691,47.1967],[8.2664,47.2102],[8.2629,47.2141],[8.2588,47.2164],[8.2468,47.2174],[8.2465,47.2111],[8.2443,47.2113],[8.2433,47.2085]]]]}},{"type":"Feature","properties":{"kind":"lake","name":"Lake Sils","local":"Lej da Segl","km2":4.1},"geometry":{"type":"MultiPolygon","coordinates":[[[[9.7038,46.4073],[9.7331,46.4099],[9.7333,46.4164],[9.7473,46.4187],[9.7536,46.4229],[9.755,46.4251],[9.7509,46.4287],[9.7472,46.4258],[9.7435,46.4267],[9.7528,46.4309],[9.7533,46.4342],[9.7347,46.4284],[9.727,46.4235],[9.7267,46.4207],[9.7297,46.4185],[9.705,46.41],[9.7038,46.4073]]]]}},{"type":"Feature","properties":{"kind":"lake","name":"Lago di Lei","local":"Lago di Lei","km2":4.0},"geometry":{"type":"MultiPolygon","coordinates":[[[[9.4318,46.429],[9.4326,46.4195],[9.4358,46.415],[9.4382,46.4274],[9.4462,46.4451],[9.4495,46.4619],[9.4574,46.4753],[9.4566,46.4832],[9.4536,46.4815],[9.4497,46.4832],[9.4494,46.4733],[9.441,46.46],[9.4384,46.4438],[9.4318,46.429]]]]}},{"type":"Feature","properties":{"kind":"lake","name":"W\u00e4gitalersee","local":"W\u00e4gitalersee","km2":4.0},"geometry":{"type":"MultiPolygon","coordinates":[[[[8.9003,47.1044],[8.9086,47.0998],[8.9092,47.0966],[8.915,47.0919],[8.9173,47.0828],[8.9127,47.0765],[8.9128,47.067],[8.9275,47.0778],[8.9256,47.0787],[8.9285,47.0814],[8.9298,47.0864],[8.9279,47.0898],[8.9302,47.0927],[8.9234,47.0977],[8.9194,47.105],[8.9051,47.1069],[8.9003,47.1044]]]]}},{"type":"Feature","properties":{"kind":"lake","name":"Lac des Dix","local":"Lac des Dix","km2":3.9},"geometry":{"type":"MultiPolygon","coordinates":[[[[7.3888,46.0636],[7.3919,46.0531],[7.3981,46.0473],[7.4032,46.0314],[7.4133,46.0331],[7.4077,46.0409],[7.4066,46.0507],[7.403,46.0538],[7.3998,46.065],[7.4071,46.0803],[7.3987,46.0803],[7.3888,46.0636]]]]}},{"type":"Feature","properties":{"kind":"lake","name":"Schiffenensee","local":"Schiffenensee","km2":3.8},"geometry":{"type":"MultiPolygon","coordinates":[[[[7.1397,46.8473],[7.1422,46.8467],[7.1413,46.8412],[7.1464,46.8319],[7.1528,46.8308],[7.1572,46.8267],[7.17,46.8248],[7.1713,46.8202],[7.1644,46.8203],[7.163,46.8197],[7.1617,46.8176],[7.1662,46.8151],[7.1627,46.8186],[7.1723,46.8195],[7.1724,46.8233],[7.1682,46.8269],[7.1482,46.8337],[7.1468,46.8448],[7.1678,46.8528],[7.1719,46.8609],[7.1772,46.8584],[7.1756,46.8617],[7.1806,46.8679],[7.1854,46.8703],[7.1873,46.8691],[7.1901,46.8686],[7.1864,46.8704],[7.1896,46.8725],[7.1882,46.8758],[7.1903,46.8741],[7.1881,46.8795],[7.1956,46.8831],[7.1888,46.885],[7.1866,46.8832],[7.1829,46.879],[7.1854,46.8737],[7.1717,46.8688],[7.1745,46.8681],[7.1663,46.8616],[7.1641,46.8551],[7.1397,46.8473]]]]}},{"type":"Feature","properties":{"kind":"lake","name":"Kl\u00f6ntalersee","local":"Kl\u00f6ntalersee","km2":3.1},"geometry":{"type":"MultiPolygon","coordinates":[[[[8.9461,47.023],[8.9652,47.0189],[8.9679,47.0213],[8.985,47.0228],[8.9892,47.027],[8.9954,47.027],[9.0067,47.0343],[8.9969,47.0364],[8.972,47.0264],[8.9499,47.0269],[8.9462,47.0261],[8.9482,47.0251],[8.9461,47.023]]]]}},{"type":"Feature","properties":{"kind":"lake","name":"Lac d'Emosson","local":"Lac d'Emosson","km2":3.1},"geometry":{"type":"MultiPolygon","coordinates":[[[[6.9033,46.0906],[6.9053,46.0899],[6.9042,46.0839],[6.911,46.0822],[6.9152,46.0782],[6.9131,46.0741],[6.9149,46.0675],[6.9111,46.0643],[6.9225,46.0675],[6.9225,46.0657],[6.9277,46.0651],[6.9352,46.0681],[6.9318,46.0725],[6.9208,46.0751],[6.9213,46.0799],[6.9151,46.0879],[6.9161,46.0927],[6.9106,46.0959],[6.9086,46.1027],[6.9033,46.0906]]]]}},{"type":"Feature","properties":{"kind":"lake","name":"Pf\u00e4ffikersee","local":"Pf\u00e4ffikersee","km2":3.0},"geometry":{"type":"MultiPolygon","coordinates":[[[[8.7681,47.3582],[8.7717,47.3563],[8.7756,47.3409],[8.7909,47.3419],[8.7883,47.3442],[8.7935,47.3481],[8.7814,47.3638],[8.7714,47.3624],[8.7681,47.3582]]]]}},{"type":"Feature","properties":{"kind":"lake","name":"Lake Geneva","local":"","km2":0,"source":"naturalearth"},"geometry":{"type":"Polygon","coordinates":[[[6.871199,46.458721],[6.916531,46.441942],[6.93537,46.423103],[6.913881,46.404264],[6.867666,46.402497],[6.697229,46.423103],[6.499417,46.409268],[6.494707,46.406324],[6.48411,46.392195],[6.479106,46.388957],[6.464682,46.385719],[6.43289,46.371589],[6.417584,46.368351],[6.408164,46.365407],[6.39374,46.351278],[6.383732,46.34804],[6.376078,46.350689],[6.355473,46.371589],[6.294834,46.373944],[6.237138,46.312422],[6.182975,46.238831],[6.133228,46.204685],[6.136171,46.213221],[6.140293,46.220286],[6.145885,46.226468],[6.153245,46.231177],[6.160015,46.268856],[6.176499,46.300059],[6.318383,46.451067],[6.334573,46.46137],[6.352823,46.467257],[6.419055,46.473145],[6.435834,46.479621],[6.495001,46.513178],[6.510897,46.517594],[6.597734,46.522304],[6.620106,46.51936],[6.784361,46.478443],[6.871199,46.458721]]]}},{"type":"Feature","properties":{"kind":"lake","name":"Lake Maggiore","local":"","km2":0,"source":"naturalearth"},"geometry":{"type":"Polygon","coordinates":[[[8.846088,46.169067],[8.847854,46.1673],[8.849031,46.164945],[8.841672,46.154348],[8.78015,46.117553],[8.753363,46.099597],[8.74777,46.094298],[8.746004,46.092532],[8.744826,46.090177],[8.741883,46.083407],[8.741883,46.063979],[8.743943,46.053381],[8.752774,46.028949],[8.753069,46.027183],[8.753363,46.017469],[8.753069,46.015997],[8.752774,46.015703],[8.752185,46.014231],[8.750419,46.010699],[8.746004,46.003928],[8.738056,45.994509],[8.732463,45.989799],[8.7201,45.981557],[8.648569,45.945055],[8.618838,45.922684],[8.616778,45.920329],[8.607947,45.908554],[8.607947,45.90826],[8.607947,45.90826],[8.607947,45.907671],[8.607358,45.907082],[8.606475,45.905905],[8.606181,45.905316],[8.604415,45.88265],[8.621488,45.847032],[8.621488,45.827015],[8.61825,45.819656],[8.613246,45.814063],[8.607358,45.809942],[8.580277,45.798462],[8.574978,45.794341],[8.574978,45.794341],[8.574978,45.794047],[8.574978,45.794047],[8.572918,45.791103],[8.571151,45.787865],[8.570268,45.783744],[8.570268,45.779034],[8.570563,45.778445],[8.572035,45.776385],[8.572035,45.775502],[8.572623,45.774324],[8.576744,45.768143],[8.577039,45.767554],[8.577627,45.766671],[8.620605,45.72546],[8.618544,45.723988],[8.616484,45.723399],[8.614423,45.723105],[8.612068,45.722222],[8.594112,45.729875],[8.578805,45.741944],[8.566147,45.756957],[8.555845,45.773441],[8.54878,45.791103],[8.552018,45.800523],[8.559966,45.807587],[8.56703,45.818479],[8.574389,45.852036],[8.566442,45.869993],[8.52111,45.897663],[8.51375,45.905022],[8.4955,45.929749],[8.492851,45.937696],[8.494322,45.939757],[8.496383,45.941229],[8.498738,45.942406],[8.501387,45.942701],[8.503742,45.942995],[8.514634,45.941229],[8.540538,45.932987],[8.56026,45.932103],[8.591463,45.942995],[8.6156,45.955064],[8.627081,45.9636],[8.6783,46.010404],[8.68772,46.01482],[8.696551,46.020413],[8.713624,46.038663],[8.713918,46.05191],[8.706853,46.064567],[8.700377,46.081052],[8.700083,46.088705],[8.700377,46.091649],[8.700377,46.091943],[8.71068,46.110488],[8.733346,46.130505],[8.763371,46.149344],[8.795163,46.164357],[8.831369,46.171716],[8.841083,46.171421],[8.843733,46.170244],[8.846088,46.169067]]]}},{"type":"Feature","properties":{"kind":"lake","name":"Lake Lugano","local":"","km2":0,"source":"naturalearth"},"geometry":{"type":"Polygon","coordinates":[[[8.965587,45.952765],[8.975108,45.938483],[8.983043,45.921515],[8.977306,45.914252],[8.971446,45.923957],[8.960216,45.938849],[8.927989,45.927924],[8.9015,45.912726],[8.892711,45.941901],[8.885997,45.974372],[8.889659,45.981696],[8.894542,45.991095],[8.903331,45.999335],[8.906383,45.987494],[8.903087,45.966498],[8.902721,45.95008],[8.908824,45.936408],[8.924937,45.936408],[8.93922,45.953131],[8.951671,45.974982],[8.953258,45.998114],[8.96046,46.012397],[8.974132,46.011176],[8.989757,46.010871],[9.021617,46.023322],[9.066661,46.033393],[9.104503,46.039435],[9.121837,46.041266],[9.110606,46.026374],[9.06837,46.017829],[9.039317,46.016974],[9.007091,46.003302],[8.971446,45.974982],[8.965587,45.952765],[8.965587,45.952765]]]}},{"type":"Feature","properties":{"kind":"river","name":"Reuss"},"geometry":{"type":"LineString","coordinates":[[8.3091,47.0518],[8.3064,47.0513],[8.3048,47.0512],[8.3039,47.0511],[8.3032,47.0512],[8.2888,47.0559],[8.2854,47.0651],[8.347,47.1018],[8.3591,47.1159],[8.389,47.1181],[8.395,47.1229],[8.4013,47.1352],[8.4145,47.1436],[8.4119,47.1536],[8.4153,47.1644],[8.4107,47.1747],[8.4022,47.177],[8.4004,47.1863],[8.4054,47.1958],[8.4008,47.2152],[8.3949,47.2253],[8.406,47.237],[8.4109,47.2471],[8.4026,47.2553],[8.4045,47.2606],[8.4008,47.2644],[8.4021,47.273],[8.395,47.278],[8.3886,47.29],[8.376,47.2988],[8.3777,47.3133],[8.3731,47.3236],[8.3376,47.339],[8.3379,47.3441],[8.3439,47.3415],[8.3456,47.3461],[8.3333,47.355],[8.3381,47.3566],[8.345,47.3525],[8.3472,47.3546],[8.3436,47.3608],[8.3346,47.3662],[8.3347,47.3717],[8.3259,47.3676],[8.3245,47.3728],[8.328,47.3773],[8.3153,47.375],[8.3066,47.3771],[8.3069,47.3936],[8.2988,47.3949],[8.2971,47.3987],[8.2902,47.402],[8.2759,47.4182],[8.2628,47.4223],[8.2601,47.4296],[8.2485,47.4308],[8.2493,47.4397],[8.2556,47.4443],[8.257,47.4504],[8.2459,47.4585],[8.2272,47.4597],[8.2273,47.461],[8.233,47.4653],[8.2331,47.4719],[8.2245,47.4803],[8.2343,47.481],[8.2405,47.4876],[8.237,47.4924]]}},{"type":"Feature","properties":{"kind":"river","name":"Reuss"},"geometry":{"type":"LineString","coordinates":[[8.569,46.6213],[8.5856,46.6304],[8.5865,46.6386],[8.5914,46.643],[8.5916,46.6484],[8.5862,46.6504],[8.5832,46.6569],[8.5952,46.6693],[8.5927,46.6876],[8.5984,46.7002],[8.6209,46.7275],[8.6395,46.7404],[8.6476,46.7574],[8.6701,46.7691],[8.6662,46.7752],[8.6684,46.7827],[8.6611,46.8042],[8.6621,46.8086],[8.6461,46.8176],[8.6457,46.8228],[8.6358,46.8336],[8.6363,46.8399],[8.631,46.8478],[8.635,46.8613],[8.6132,46.8994]]}},{"type":"Feature","properties":{"kind":"river","name":"Aare"},"geometry":{"type":"LineString","coordinates":[[7.6224,46.7617],[7.6143,46.7621],[7.6058,46.7704],[7.5898,46.7939],[7.57,46.8009],[7.5685,46.8085],[7.5717,46.8207],[7.5601,46.8362],[7.5548,46.8543],[7.5412,46.8755],[7.5355,46.8924],[7.5007,46.9189],[7.484,46.9256],[7.4735,46.9233],[7.4591,46.9347],[7.4454,46.9348],[7.446,46.9449],[7.4537,46.9449],[7.4575,46.9464],[7.4583,46.9469],[7.4585,46.9491],[7.4423,46.9536],[7.4437,46.9638],[7.4493,46.9707],[7.4603,46.97],[7.4672,46.9752],[7.4545,46.9778],[7.4522,46.99],[7.4484,46.9894],[7.4475,46.9853],[7.4462,46.9838],[7.4424,46.9812],[7.4416,46.9803],[7.4414,46.9799],[7.4484,46.9787],[7.4485,46.9756],[7.4412,46.9768],[7.4371,46.9682],[7.4282,46.9738],[7.3823,46.9661],[7.374,46.96],[7.3673,46.9668],[7.3468,46.9627],[7.3181,46.9666],[7.3072,46.9639],[7.2942,46.97],[7.2834,46.9642],[7.2862,46.9708],[7.2839,46.9733],[7.2766,46.9745],[7.2666,46.9701],[7.2591,46.9744],[7.2624,46.9822],[7.2534,46.987],[7.2395,47.0028],[7.2574,47.0093],[7.2585,47.0133],[7.2545,47.0206],[7.2733,47.0311],[7.2731,47.0356]]}},{"type":"Feature","properties":{"kind":"river","name":"Aare"},"geometry":{"type":"LineString","coordinates":[[7.3675,47.1417],[7.3752,47.1407],[7.3828,47.1451],[7.3938,47.1607],[7.4134,47.1631],[7.4184,47.1712],[7.4301,47.1746],[7.4327,47.1846],[7.4381,47.1847],[7.4434,47.1792],[7.4495,47.183],[7.4488,47.1895],[7.4768,47.1909]]}},{"type":"Feature","properties":{"kind":"river","name":"Aare"},"geometry":{"type":"LineString","coordinates":[[7.4841,47.1977],[7.4854,47.2029],[7.4918,47.2048],[7.5036,47.1965],[7.5211,47.1962],[7.5351,47.2054],[7.5493,47.2073],[7.5555,47.2165],[7.5683,47.2175],[7.5798,47.2257],[7.5989,47.231],[7.6223,47.2296],[7.6303,47.2349],[7.6491,47.2381],[7.6986,47.233],[7.7175,47.2266],[7.7299,47.2271],[7.7358,47.2335],[7.7435,47.2361],[7.7471,47.2433],[7.7801,47.2503],[7.8007,47.2678],[7.805,47.2682],[7.807,47.2633],[7.815,47.2613],[7.8332,47.2679],[7.8436,47.2766],[7.8604,47.3055],[7.8735,47.3117],[7.8822,47.3113]]}},{"type":"Feature","properties":{"kind":"river","name":"Aare"},"geometry":{"type":"LineString","coordinates":[[7.8899,47.312],[7.8982,47.3201],[7.8974,47.3284],[7.9084,47.3403],[7.9051,47.3492],[7.9073,47.3585],[7.9172,47.3684],[7.9366,47.3605],[7.9506,47.3613],[7.9595,47.367],[7.9712,47.3696],[7.9908,47.3684],[7.9978,47.3723],[8.0049,47.3853],[8.0187,47.3831],[8.0247,47.3925],[8.0396,47.395]]}},{"type":"Feature","properties":{"kind":"river","name":"Aare"},"geometry":{"type":"LineString","coordinates":[[7.9218,47.3658],[7.93,47.3573],[7.947,47.3594],[7.9622,47.3539],[7.9664,47.3571],[7.9637,47.3639],[7.9655,47.3674],[7.9906,47.3625],[7.994,47.3639],[7.996,47.3706]]}},{"type":"Feature","properties":{"kind":"river","name":"Aare"},"geometry":{"type":"LineString","coordinates":[[8.0396,47.395],[8.0503,47.3971],[8.0562,47.404],[8.0637,47.4048],[8.0668,47.4087],[8.0684,47.4095],[8.0704,47.4102],[8.072,47.4106],[8.1214,47.4105],[8.1459,47.4143]]}},{"type":"Feature","properties":{"kind":"river","name":"Aare"},"geometry":{"type":"LineString","coordinates":[[8.2985,46.6485],[8.2888,46.6583],[8.254,46.6751],[8.2471,46.6832],[8.2423,46.6844],[8.2397,46.6952],[8.2171,46.7121],[8.2114,46.7198],[8.1771,46.7242],[8.1389,46.7438],[8.101,46.7465],[8.0475,46.7425]]}},{"type":"Feature","properties":{"kind":"river","name":"Aare"},"geometry":{"type":"LineString","coordinates":[[8.1459,47.4143],[8.1588,47.4161],[8.1628,47.4203],[8.1624,47.4336],[8.1659,47.4418],[8.1597,47.4617],[8.1651,47.4667],[8.1857,47.4748],[8.1927,47.4818]]}},{"type":"Feature","properties":{"kind":"river","name":"Aare"},"geometry":{"type":"LineString","coordinates":[[8.1927,47.4818],[8.2057,47.4862],[8.2226,47.4853],[8.237,47.4924],[8.2332,47.5192],[8.2255,47.5343],[8.2307,47.5445],[8.226,47.5497],[8.225,47.5518],[8.2293,47.5571],[8.2391,47.559]]}},{"type":"Feature","properties":{"kind":"river","name":"Aare"},"geometry":{"type":"LineString","coordinates":[[8.2391,47.559],[8.2515,47.5627],[8.2536,47.5711],[8.2212,47.5969],[8.2238,47.6064]]}},{"type":"Feature","properties":{"kind":"river","name":"Limmat"},"geometry":{"type":"LineString","coordinates":[[8.5432,47.3667],[8.5417,47.3796],[8.528,47.3896],[8.4979,47.3987],[8.4872,47.3989],[8.4806,47.4035],[8.4666,47.4032],[8.4467,47.4097],[8.4304,47.4001],[8.4095,47.4014],[8.4073,47.4044],[8.4099,47.4105],[8.3995,47.4238],[8.3763,47.4297],[8.3711,47.4349],[8.3627,47.4322],[8.3443,47.4379],[8.3267,47.4573],[8.3119,47.4546],[8.3145,47.4586],[8.3095,47.461],[8.3082,47.4674],[8.3143,47.4816],[8.2845,47.4854],[8.2717,47.4835],[8.2694,47.4879],[8.2574,47.4918],[8.2569,47.4967],[8.2442,47.4943],[8.2425,47.5008],[8.2356,47.5024]]}},{"type":"Feature","properties":{"kind":"river","name":"Rotten"},"geometry":{"type":"LineString","coordinates":[[8.3833,46.5791],[8.3828,46.5769],[8.3825,46.5769],[8.3825,46.5766],[8.3821,46.5765],[8.3821,46.5765],[8.38,46.5759],[8.3793,46.5748],[8.379,46.5697],[8.3553,46.5591],[8.3617,46.5489],[8.3618,46.5416],[8.3589,46.5374],[8.3473,46.5334],[8.3281,46.5137],[8.3123,46.5078],[8.2654,46.4788],[8.2456,46.4704],[8.2436,46.4637],[8.2203,46.4544],[8.2085,46.444],[8.2044,46.4439],[8.2003,46.437],[8.1814,46.4297],[8.1246,46.3912],[8.1194,46.3848],[8.101,46.3756],[8.0921,46.3781],[8.0543,46.3617],[8.0276,46.3445],[8.0264,46.3402],[8.0155,46.3343],[8.0096,46.326],[7.9835,46.3202],[7.9304,46.299],[7.9014,46.2961],[7.8791,46.3023],[7.8282,46.3085],[7.7825,46.3061],[7.7585,46.3091],[7.7406,46.3062],[7.704,46.3102],[7.6744,46.3059],[7.6196,46.3154],[7.6041,46.3132],[7.5603,46.2963]]}},{"type":"Feature","properties":{"kind":"river","name":"Ticino"},"geometry":{"type":"LineString","coordinates":[[8.6075,46.5263],[8.6256,46.5253],[8.6441,46.5181],[8.6941,46.5149],[8.7159,46.5064],[8.743,46.49],[8.7585,46.4918],[8.7742,46.489],[8.8225,46.4648],[8.8374,46.4404],[8.8492,46.4346],[8.8557,46.4219],[8.8601,46.4203],[8.8711,46.4055],[8.8758,46.4007],[8.915,46.3735],[8.9255,46.3715],[8.9306,46.3639],[8.9532,46.3568],[8.9726,46.3351],[8.9791,46.3255],[8.9823,46.3064],[8.9914,46.3009],[8.9962,46.2929],[8.9982,46.2758],[9.0138,46.2694],[9.011,46.253],[9.017,46.2437],[9.0335,46.2352],[9.0394,46.2175],[9.0373,46.2122],[9.0172,46.2029],[8.9993,46.1758],[8.9662,46.1742],[8.8857,46.1577],[8.8616,46.1558]]}},{"type":"Feature","properties":{"kind":"river","name":"Rhein"},"geometry":{"type":"LineString","coordinates":[[8.6128,47.6775],[8.6094,47.6653],[8.6283,47.6531],[8.6283,47.6488],[8.6236,47.6414],[8.6148,47.6377],[8.6035,47.6389],[8.6041,47.6415],[8.6138,47.6441],[8.6132,47.6488],[8.6079,47.6524],[8.5961,47.6435],[8.5978,47.628],[8.6048,47.6127],[8.5954,47.6051],[8.5942,47.5963],[8.5789,47.5903],[8.5771,47.5853],[8.58,47.5769],[8.5722,47.5745],[8.5674,47.5622],[8.5563,47.5521],[8.5508,47.5564],[8.5477,47.5653],[8.5401,47.5708],[8.498,47.5812],[8.4336,47.5666],[8.3979,47.5772],[8.3827,47.5657],[8.3586,47.5702],[8.3294,47.571],[8.2975,47.5893],[8.2952,47.5937],[8.2957,47.5975],[8.2978,47.6044],[8.2919,47.6091],[8.2791,47.6116],[8.2654,47.6093],[8.2569,47.6153],[8.2379,47.6126],[8.2269,47.6052],[8.2238,47.6064],[8.219,47.6181],[8.2078,47.6212],[8.1972,47.6187],[8.1852,47.6056],[8.1644,47.5941],[8.1493,47.5959],[8.1383,47.5902],[8.1363,47.5839],[8.1102,47.5828],[8.1028,47.5759],[8.0991,47.5626],[8.0897,47.5578],[8.081,47.5582],[8.0672,47.5645],[8.0592,47.5635],[8.0409,47.5537],[8.0204,47.5504],[8.0006,47.5564],[7.9767,47.5552],[7.9603,47.5581],[7.9533,47.5555],[7.9512,47.5485],[7.9486,47.5453],[7.9462,47.5439],[7.918,47.5472],[7.9077,47.5559],[7.9072,47.562],[7.9112,47.5686],[7.9057,47.5777],[7.8913,47.5875],[7.8724,47.5886],[7.8438,47.5821],[7.8318,47.5867],[7.8191,47.5872],[7.8115,47.5707],[7.7945,47.557],[7.7502,47.5443],[7.7181,47.5417],[7.695,47.5325],[7.668,47.5357],[7.6614,47.5448],[7.6492,47.5482],[7.6407,47.5575]]}},{"type":"Feature","properties":{"kind":"river","name":"Rhein"},"geometry":{"type":"LineString","coordinates":[[8.7244,47.6925],[8.7069,47.6895],[8.6897,47.6956],[8.6702,47.6849],[8.6414,47.6949],[8.6243,47.6913],[8.6269,47.6785],[8.6208,47.6753],[8.6166,47.677]]}},{"type":"Feature","properties":{"kind":"river","name":"Rhein"},"geometry":{"type":"LineString","coordinates":[[9.4078,46.8234],[9.4395,46.8391],[9.4581,46.8382],[9.4851,46.8451],[9.5011,46.8598],[9.5291,46.8725],[9.5391,46.8918],[9.5384,46.8971],[9.5461,46.9089],[9.5543,46.9131],[9.5584,46.9275],[9.5581,46.9319],[9.5429,46.9462],[9.5488,46.9736],[9.5116,47.0081],[9.508,47.0167],[9.4772,47.0491],[9.4718,47.0615],[9.4751,47.067],[9.5122,47.0844],[9.5198,47.0967],[9.5131,47.1291],[9.4892,47.1692]]}},{"type":"Feature","properties":{"kind":"river","name":"Rhein"},"geometry":{"type":"LineString","coordinates":[[9.4869,47.1863],[9.4906,47.1982],[9.4996,47.2114],[9.5035,47.2235],[9.518,47.2406],[9.5205,47.244],[9.5298,47.2619],[9.5303,47.2634],[9.5307,47.2706]]}},{"type":"Feature","properties":{"kind":"river","name":"Rhein"},"geometry":{"type":"LineString","coordinates":[[9.489,47.1699],[9.4858,47.1814],[9.4859,47.1824],[9.4869,47.1863],[9.4879,47.1902],[9.4898,47.1965],[9.4906,47.1982],[9.4957,47.2054],[9.4996,47.2114],[9.5016,47.2202],[9.5035,47.2235],[9.5205,47.244],[9.5247,47.2523],[9.5298,47.2619],[9.5301,47.2625],[9.5303,47.2634],[9.5304,47.2695],[9.5307,47.2706]]}},{"type":"Feature","properties":{"kind":"river","name":"Rhein"},"geometry":{"type":"LineString","coordinates":[[9.5592,47.3002],[9.5619,47.3018],[9.5649,47.3037],[9.5656,47.3041],[9.5835,47.3126],[9.589,47.3186],[9.5948,47.3338],[9.6001,47.3462],[9.6053,47.3515],[9.6107,47.3557],[9.6227,47.3648],[9.6317,47.3719],[9.6439,47.386],[9.6519,47.4084],[9.6501,47.4218],[9.6451,47.4321],[9.6444,47.4359],[9.658,47.4478]]}},{"type":"Feature","properties":{"kind":"river","name":"Rhein"},"geometry":{"type":"LineString","coordinates":[[9.5592,47.3002],[9.5619,47.3018],[9.5641,47.3033],[9.5649,47.3037],[9.5656,47.3041],[9.5656,47.3041],[9.5805,47.3105],[9.5835,47.3126],[9.5883,47.3175],[9.589,47.3186],[9.5893,47.3191],[9.5948,47.3338],[9.5993,47.3448],[9.6001,47.3462],[9.6038,47.3501],[9.6053,47.3515],[9.6107,47.3557],[9.6197,47.3624],[9.6227,47.3648],[9.6301,47.3705],[9.6317,47.3719],[9.637,47.3771],[9.6439,47.386],[9.6497,47.3985],[9.6519,47.4084],[9.6511,47.4164],[9.6501,47.4218],[9.6486,47.4256],[9.6451,47.4321],[9.6445,47.4337],[9.6444,47.4359],[9.6474,47.4403],[9.658,47.4478]]}},{"type":"Feature","properties":{"kind":"river","name":"Rhein"},"geometry":{"type":"LineString","coordinates":[[9.5592,47.3002],[9.5656,47.3041],[9.5789,47.3099],[9.5805,47.3105],[9.5826,47.3118],[9.5835,47.3126],[9.5881,47.3173],[9.5883,47.3175],[9.5888,47.3182],[9.589,47.3186],[9.5893,47.3191],[9.5923,47.3273],[9.5948,47.3338],[9.5963,47.3375],[9.5993,47.3448],[9.5997,47.3455],[9.6001,47.3462],[9.6007,47.3469],[9.6038,47.3501],[9.6053,47.3515],[9.6107,47.3557],[9.6197,47.3624],[9.6227,47.3648],[9.6245,47.3661],[9.6301,47.3705],[9.6311,47.3714],[9.6317,47.3719],[9.6348,47.3748],[9.637,47.3771],[9.6423,47.3835],[9.6439,47.386],[9.6471,47.3916],[9.6497,47.3985],[9.6516,47.4046],[9.6519,47.4084],[9.6511,47.4164],[9.6504,47.4204],[9.6501,47.4218],[9.6496,47.4232],[9.6486,47.4256],[9.6455,47.4312],[9.6451,47.4321],[9.6445,47.4337],[9.6443,47.4348],[9.6444,47.4359],[9.6451,47.4378],[9.6474,47.4403],[9.6501,47.4421],[9.658,47.4478]]}},{"type":"Feature","properties":{"kind":"river","name":"Rhein"},"geometry":{"type":"LineString","coordinates":[[9.658,47.4478],[9.6685,47.4596],[9.6706,47.5012],[9.6657,47.5083],[9.6554,47.5135],[9.6485,47.5185],[9.6448,47.5254]]}},{"type":"Feature","properties":{"kind":"river","name":"Rhein"},"geometry":{"type":"LineString","coordinates":[[9.658,47.4478],[9.6652,47.4535],[9.6685,47.4596],[9.6705,47.4898],[9.6706,47.5012],[9.6695,47.5037],[9.6657,47.5083],[9.6632,47.5101],[9.6554,47.5135],[9.651,47.5165],[9.6485,47.5185],[9.646,47.5235],[9.6448,47.5254]]}},{"type":"Feature","properties":{"kind":"river","name":"Rhein"},"geometry":{"type":"LineString","coordinates":[[9.658,47.4478],[9.6629,47.4514],[9.6652,47.4535],[9.6672,47.4562],[9.6685,47.4596],[9.6688,47.4615],[9.6705,47.4898],[9.6709,47.4994],[9.6706,47.5012],[9.6704,47.5019],[9.6695,47.5037],[9.6678,47.5062],[9.6657,47.5083],[9.6632,47.5101],[9.6601,47.5114],[9.6554,47.5135],[9.651,47.5165],[9.6493,47.5179],[9.6485,47.5185],[9.646,47.5235],[9.6448,47.5254]]}},{"type":"Feature","properties":{"kind":"river","name":"Rhein"},"geometry":{"type":"LineString","coordinates":[[9.126,47.6672],[9.1387,47.6641],[9.1399,47.6641],[9.141,47.6642],[9.1462,47.6664],[9.1499,47.6674],[9.151,47.6674],[9.155,47.6664],[9.1575,47.6689],[9.163,47.6702],[9.1789,47.6662],[9.1699,47.6696],[9.163,47.6702],[9.155,47.6664],[9.1499,47.6674],[9.141,47.6642],[9.1399,47.6641],[9.126,47.6672]]}},{"type":"Feature","properties":{"kind":"river","name":"Thur"},"geometry":{"type":"LineString","coordinates":[[9.1511,47.5449],[9.1418,47.5496],[9.1391,47.5496],[9.1307,47.5486],[9.1212,47.5495],[9.1184,47.5504],[9.108,47.5537],[9.1051,47.5553],[9.102,47.5564],[9.089,47.5587],[9.0862,47.5595],[9.0734,47.565],[9.0573,47.5737],[9.0531,47.5744],[9.0386,47.5752],[9.0231,47.58],[9.0073,47.5847],[8.9856,47.5899],[8.9351,47.5877]]}},{"type":"Feature","properties":{"kind":"river","name":"Thur"},"geometry":{"type":"LineString","coordinates":[[9.1511,47.5449],[9.1445,47.5488],[9.1418,47.5496],[9.1307,47.5486],[9.1236,47.5491],[9.1212,47.5495],[9.0862,47.5595],[9.0573,47.5737],[9.0386,47.5752],[8.9856,47.5899],[8.9572,47.5899],[8.9351,47.5877]]}},{"type":"Feature","properties":{"kind":"river","name":"Thur"},"geometry":{"type":"LineString","coordinates":[[8.9351,47.5877],[8.9327,47.5881],[8.9291,47.5875],[8.918,47.5871],[8.8836,47.5797],[8.8517,47.5776],[8.8465,47.5782],[8.8393,47.5788],[8.8285,47.5784],[8.827,47.5784],[8.8209,47.5798],[8.8188,47.58],[8.7715,47.591],[8.7672,47.5921],[8.7657,47.5935],[8.7632,47.5927],[8.7619,47.5926],[8.7469,47.5921],[8.7451,47.5913],[8.7431,47.5887],[8.7418,47.588],[8.7387,47.588],[8.7341,47.5915],[8.7322,47.5967],[8.7203,47.5941],[8.7177,47.5948],[8.7183,47.5969],[8.7251,47.5992],[8.7187,47.605],[8.7149,47.6012],[8.7086,47.599],[8.7064,47.5979],[8.7034,47.5954],[8.7014,47.5956],[8.696,47.5977],[8.6881,47.5965],[8.6839,47.5965],[8.677,47.5993],[8.6726,47.6045],[8.6707,47.6059],[8.6655,47.6075],[8.6603,47.6056],[8.6525,47.5965],[8.6509,47.5892],[8.6499,47.5884],[8.6481,47.5886],[8.6447,47.5896],[8.6389,47.5919],[8.6344,47.5932],[8.6193,47.5943],[8.5873,47.5943],[8.6344,47.5932],[8.6357,47.593],[8.6389,47.5919],[8.6481,47.5886],[8.6494,47.5884],[8.6499,47.5884],[8.6525,47.5965],[8.6655,47.6075],[8.6687,47.6069],[8.6707,47.6059],[8.6839,47.5965],[8.7034,47.5954],[8.7149,47.6012],[8.7165,47.6044],[8.7187,47.605],[8.7228,47.6025],[8.7251,47.5992],[8.7177,47.5948],[8.7322,47.5967],[8.7387,47.588],[8.7411,47.5877],[8.7418,47.588],[8.7451,47.5913],[8.7458,47.5916],[8.7469,47.5921],[8.7657,47.5935],[8.827,47.5784],[8.8393,47.5788],[8.8517,47.5776],[8.8692,47.5787],[8.8836,47.5797],[8.8924,47.5809],[8.918,47.5871],[8.9327,47.5881],[8.9351,47.5877]]}},{"type":"Feature","properties":{"kind":"river","name":"Thur"},"geometry":{"type":"LineString","coordinates":[[9.0815,47.3319],[9.0812,47.332],[9.0811,47.3322],[9.0814,47.3336],[9.0816,47.3337],[9.0832,47.3342],[9.0835,47.3343],[9.0836,47.3345],[9.082,47.3364],[9.0788,47.3377],[9.0789,47.3393],[9.0806,47.3402],[9.0808,47.3404],[9.0808,47.3404],[9.0804,47.3408],[9.0803,47.3411],[9.0805,47.3419],[9.0805,47.342],[9.0805,47.3421],[9.08,47.343],[9.0797,47.3442],[9.08,47.3447],[9.0802,47.345],[9.0811,47.3457],[9.0829,47.3491],[9.084,47.3494],[9.0849,47.3489],[9.0853,47.3489],[9.0873,47.35],[9.087,47.3503],[9.0844,47.351],[9.0837,47.3514],[9.079,47.3555],[9.0789,47.3556],[9.0788,47.3559],[9.0786,47.3563],[9.0792,47.3575],[9.0811,47.3577],[9.0819,47.3578],[9.0836,47.3575],[9.0839,47.3576],[9.0843,47.3578],[9.0836,47.3593],[9.0821,47.3601],[9.0799,47.361],[9.0796,47.3619],[9.0802,47.3634],[9.0802,47.3638],[9.08,47.3642],[9.0784,47.3656],[9.0779,47.3662],[9.0818,47.3675],[9.0828,47.3686],[9.0821,47.3696],[9.0796,47.3705],[9.0831,47.3758],[9.0821,47.3768],[9.0783,47.3777],[9.0805,47.3809],[9.0807,47.3824],[9.0803,47.3828],[9.0797,47.3828],[9.078,47.3823],[9.0745,47.384],[9.0752,47.3849],[9.0767,47.3857],[9.0786,47.3863],[9.079,47.3867],[9.0792,47.3875],[9.0779,47.3895],[9.0779,47.3901],[9.081,47.3921],[9.0814,47.3929],[9.08,47.3938],[9.075,47.3923],[9.0734,47.3932],[9.0742,47.3937],[9.0769,47.3959],[9.0808,47.3984],[9.0764,47.4007],[9.0727,47.4042],[9.072,47.4059],[9.0723,47.4062],[9.0739,47.4073],[9.078,47.4103],[9.0783,47.4106],[9.0782,47.4115],[9.0767,47.416],[9.0755,47.4189],[9.0762,47.419],[9.079,47.4184],[9.0828,47.4199],[9.083,47.4208],[9.0814,47.4224],[9.0783,47.4238],[9.077,47.4244],[9.0741,47.4251],[9.0755,47.4288],[9.075,47.4308],[9.0729,47.431],[9.0686,47.4306],[9.0654,47.4353],[9.0627,47.4368],[9.063,47.4382],[9.067,47.4396],[9.0676,47.44],[9.0666,47.4427],[9.0631,47.4455]]}},{"type":"Feature","properties":{"kind":"river","name":"Thur"},"geometry":{"type":"LineString","coordinates":[[9.0815,47.3319],[9.0814,47.3336],[9.0816,47.3337],[9.0835,47.3343],[9.0836,47.3344],[9.0836,47.3345],[9.0788,47.3377],[9.0808,47.3404],[9.0804,47.3408],[9.0797,47.3442],[9.0873,47.35],[9.0786,47.3563],[9.0786,47.3571],[9.0792,47.3575],[9.0819,47.3578],[9.0839,47.3576],[9.0841,47.3576],[9.0843,47.3578],[9.0799,47.361],[9.0779,47.3662],[9.0828,47.3686],[9.0796,47.3705],[9.083,47.3728],[9.0831,47.3758],[9.0783,47.3777],[9.0807,47.3824],[9.078,47.3823],[9.0757,47.3832],[9.0745,47.384],[9.0747,47.3843],[9.0752,47.3849],[9.0786,47.3863],[9.079,47.3867],[9.0792,47.387],[9.0792,47.3875],[9.0779,47.3901],[9.0814,47.3929],[9.081,47.3935],[9.08,47.3938],[9.0734,47.3932],[9.0769,47.3959],[9.0802,47.3977],[9.0808,47.3984],[9.072,47.4059],[9.0723,47.4062],[9.0783,47.4106],[9.0755,47.4189],[9.083,47.4208],[9.0741,47.4251],[9.075,47.4308],[9.0686,47.4306],[9.0627,47.4368],[9.0622,47.4374],[9.063,47.4382],[9.0676,47.44],[9.0631,47.4455]]}},{"type":"Feature","properties":{"kind":"river","name":"Thur"},"geometry":{"type":"LineString","coordinates":[[9.0642,47.447],[9.0653,47.4484],[9.0688,47.4519],[9.0703,47.4537],[9.0763,47.4567],[9.0829,47.458],[9.1103,47.4614],[9.1131,47.4624],[9.1163,47.4646],[9.1218,47.4628],[9.125,47.4571],[9.1354,47.4548],[9.1543,47.4558],[9.1578,47.4597],[9.1598,47.4607],[9.1731,47.4586]]}},{"type":"Feature","properties":{"kind":"river","name":"Thur"},"geometry":{"type":"LineString","coordinates":[[9.0642,47.447],[9.0763,47.4567],[9.1103,47.4614],[9.1163,47.4646],[9.1205,47.4636],[9.1218,47.4628],[9.1231,47.459],[9.125,47.4571],[9.1284,47.4562],[9.1354,47.4548],[9.1499,47.455],[9.1543,47.4558],[9.1598,47.4607],[9.1679,47.4581],[9.1731,47.4586]]}},{"type":"Feature","properties":{"kind":"river","name":"Thur"},"geometry":{"type":"LineString","coordinates":[[9.3024,47.196],[9.2793,47.1934],[9.269,47.1873],[9.2673,47.1893],[9.2579,47.1859],[9.2341,47.1903],[9.2258,47.201],[9.2194,47.203],[9.217,47.2111],[9.2109,47.217],[9.1969,47.2194],[9.198,47.224],[9.1861,47.227],[9.1864,47.2351],[9.1778,47.2405],[9.1779,47.2448],[9.1679,47.2459],[9.1666,47.2489],[9.1524,47.2542],[9.1418,47.2565],[9.1376,47.2548],[9.1331,47.2583],[9.1218,47.2589],[9.1183,47.2655],[9.1134,47.2662],[9.1057,47.2763],[9.0968,47.2814],[9.0991,47.2879],[9.0925,47.292],[9.0892,47.3012],[9.0825,47.3037],[9.0856,47.3085],[9.0791,47.3134],[9.0865,47.3191],[9.0816,47.3241],[9.0844,47.3258],[9.0815,47.3319]]}},{"type":"Feature","properties":{"kind":"river","name":"Thur"},"geometry":{"type":"LineString","coordinates":[[9.2123,47.5008],[9.2122,47.5047],[9.2071,47.5081],[9.2066,47.509],[9.2067,47.5111],[9.2088,47.5166],[9.2056,47.5215],[9.1944,47.525],[9.1909,47.5249],[9.1854,47.5236],[9.184,47.5235],[9.1804,47.524],[9.1687,47.5357],[9.167,47.5366],[9.1605,47.5389]]}},{"type":"Feature","properties":{"kind":"river","name":"Thur"},"geometry":{"type":"LineString","coordinates":[[9.2123,47.5008],[9.2127,47.5033],[9.2122,47.5047],[9.2066,47.509],[9.2088,47.5166],[9.2071,47.5201],[9.2056,47.5215],[9.2006,47.5237],[9.1944,47.525],[9.193,47.525],[9.1909,47.5249],[9.184,47.5235],[9.182,47.5236],[9.1804,47.524],[9.1772,47.5259],[9.1687,47.5357],[9.1605,47.5389]]}},{"type":"Feature","properties":{"kind":"river","name":"Thur"},"geometry":{"type":"LineString","coordinates":[[9.1731,47.4586],[9.1752,47.4594],[9.1771,47.4605],[9.1837,47.4644],[9.1847,47.465],[9.1985,47.4722],[9.2062,47.4767],[9.2087,47.4792],[9.2089,47.4796],[9.2094,47.4811],[9.2098,47.4819],[9.2124,47.4864],[9.2174,47.491],[9.2201,47.4917],[9.2255,47.4882],[9.2334,47.4935],[9.2313,47.4976],[9.2273,47.4972],[9.2235,47.4952],[9.2223,47.4951],[9.2171,47.4984],[9.2163,47.4987],[9.2137,47.4994],[9.2123,47.5008]]}},{"type":"Feature","properties":{"kind":"river","name":"Thur"},"geometry":{"type":"LineString","coordinates":[[9.1731,47.4586],[9.1741,47.459],[9.1752,47.4594],[9.1771,47.4605],[9.1847,47.465],[9.2062,47.4767],[9.2124,47.4864],[9.2143,47.4885],[9.2174,47.491],[9.2255,47.4882],[9.232,47.4914],[9.2334,47.4935],[9.2334,47.4959],[9.2313,47.4976],[9.2291,47.4976],[9.2273,47.4972],[9.2223,47.4951],[9.2137,47.4994],[9.2126,47.5001],[9.2123,47.5008]]}},{"type":"Feature","properties":{"kind":"river","name":"Le Rh\u00f4ne"},"geometry":{"type":"LineString","coordinates":[[5.8337,45.9693],[5.8328,45.9575],[5.8363,45.9454],[5.8256,45.9382],[5.8221,45.9297],[5.833,45.9197],[5.8347,45.9121],[5.8286,45.895],[5.8234,45.8911],[5.8254,45.8822],[5.8127,45.874],[5.8207,45.8693],[5.802,45.8485]]}},{"type":"Feature","properties":{"kind":"river","name":"Le Rh\u00f4ne"},"geometry":{"type":"LineString","coordinates":[[5.9067,46.1223],[5.893,46.1189],[5.8859,46.1091],[5.8936,46.0956],[5.8916,46.0888],[5.8871,46.0859],[5.858,46.0858],[5.8323,46.106],[5.8195,46.1038],[5.8232,46.0938],[5.8164,46.0818],[5.8114,46.079],[5.8074,46.0639],[5.8093,46.0597],[5.8152,46.0574],[5.8067,46.0442],[5.8124,46.0246],[5.8051,46.0148],[5.8109,46.0102],[5.8086,46.0065],[5.8101,45.9879],[5.8339,45.9721]]}},{"type":"Feature","properties":{"kind":"river","name":"Le Rh\u00f4ne"},"geometry":{"type":"LineString","coordinates":[[6.0098,46.1768],[6.0043,46.1753],[5.9971,46.1767],[5.9925,46.1771],[5.9902,46.1758],[5.9893,46.1742],[5.989,46.173],[5.9889,46.172],[5.9887,46.1716],[5.9875,46.1703],[5.9869,46.1706],[5.9866,46.1711],[5.986,46.1722],[5.9847,46.1735],[5.9821,46.1734],[5.9809,46.1711],[5.9809,46.1707],[5.981,46.1699],[5.9809,46.1691],[5.9804,46.1673],[5.9801,46.1663],[5.9731,46.1561],[5.9689,46.1519],[5.9668,46.148],[5.9642,46.1446],[5.9643,46.1421],[5.9663,46.1379],[5.9643,46.1361],[5.9558,46.1323]]}},{"type":"Feature","properties":{"kind":"river","name":"Le Rh\u00f4ne"},"geometry":{"type":"LineString","coordinates":[[6.0098,46.1768],[5.9925,46.1771],[5.9913,46.1766],[5.9902,46.1758],[5.9901,46.1756],[5.9893,46.1742],[5.9889,46.172],[5.9887,46.1716],[5.9882,46.1709],[5.9875,46.1703],[5.9873,46.1704],[5.9869,46.1706],[5.9847,46.1735],[5.9832,46.1738],[5.9821,46.1734],[5.9819,46.1731],[5.9809,46.1711],[5.9801,46.1663],[5.9689,46.1519],[5.9642,46.1446],[5.9663,46.1379],[5.9558,46.1323]]}},{"type":"Feature","properties":{"kind":"river","name":"Le Rh\u00f4ne"},"geometry":{"type":"LineString","coordinates":[[6.1486,46.2063],[6.1192,46.2009],[6.1091,46.2025],[6.0952,46.1922],[6.087,46.1956],[6.0939,46.2089],[6.0906,46.2114],[6.0794,46.2029],[6.0708,46.2013],[6.0632,46.1936],[6.0512,46.1934],[6.0325,46.1992],[6.0286,46.1952],[6.0302,46.1871],[6.0098,46.1768]]}},{"type":"Feature","properties":{"kind":"river","name":"Le Rh\u00f4ne"},"geometry":{"type":"LineString","coordinates":[[7.5603,46.2963],[7.554,46.2951],[7.5543,46.287],[7.5502,46.2846],[7.4593,46.2649],[7.4199,46.2405],[7.403,46.2446],[7.3822,46.244],[7.3591,46.2199],[7.3304,46.21],[7.3111,46.2095],[7.2304,46.1769],[7.2063,46.1772],[7.2014,46.1745],[7.1948,46.1616],[7.166,46.1554],[7.1292,46.1373],[7.0696,46.1204],[7.048,46.1411],[7.034,46.1491],[7.0331,46.1612],[7.0274,46.1755],[7.0345,46.1835],[7.0338,46.1865],[7.021,46.2013],[7.0119,46.2056],[7.0077,46.2212],[7.0026,46.2251],[7.0026,46.2323],[6.9899,46.2437],[6.9871,46.2525],[6.9653,46.2685],[6.9594,46.2847],[6.9369,46.2979],[6.9305,46.3295],[6.9182,46.3394],[6.9022,46.3385],[6.8946,46.3414],[6.882,46.3541],[6.8868,46.3653],[6.8856,46.3747],[6.8588,46.3947]]}},{"type":"Feature","properties":{"kind":"river","name":"Linth"},"geometry":{"type":"LineString","coordinates":[[9.0995,47.1327],[9.0674,47.1302],[8.994,47.1824],[8.9712,47.2165],[8.9415,47.2182]]}},{"type":"Feature","properties":{"kind":"river","name":"Linth"},"geometry":{"type":"LineString","coordinates":[[8.9804,46.8659],[8.9839,46.8708],[8.9794,46.8803],[8.9891,46.8921],[8.9834,46.9065],[8.9868,46.9131],[9.0057,46.932],[9.0194,46.9409],[9.0318,46.9603],[9.0462,46.9717],[9.0525,46.9831],[9.063,46.9854],[9.0668,46.9916],[9.0789,46.9941],[9.0748,46.9984],[9.0807,47.0039],[9.0864,47.0169],[9.0809,47.0245],[9.0825,47.0277],[9.0733,47.0338],[9.0701,47.0451],[9.0601,47.0571],[9.0624,47.0599],[9.0602,47.0632],[9.061,47.0829],[9.0712,47.0962],[9.0734,47.1063],[9.0812,47.1173],[9.1217,47.1272]]}},{"type":"Feature","properties":{"kind":"river","name":"Saane"},"geometry":{"type":"LineString","coordinates":[[7.194,46.8825],[7.2,46.8809],[7.2233,46.9027],[7.2338,46.9062],[7.2399,46.9189],[7.239,46.9268],[7.2465,46.9404],[7.2343,46.9531],[7.2511,46.9682],[7.2516,46.9771],[7.2619,46.9795]]}},{"type":"Feature","properties":{"kind":"river","name":"Saane"},"geometry":{"type":"LineString","coordinates":[[7.2961,46.36],[7.2841,46.3653],[7.283,46.3683],[7.2868,46.3725],[7.2749,46.3783],[7.2752,46.3845],[7.2682,46.3911],[7.2694,46.4079],[7.2741,46.4153],[7.2694,46.4273],[7.2713,46.4449],[7.2838,46.4664],[7.2724,46.4813],[7.2632,46.4876],[7.2444,46.4836],[7.2298,46.4861]]}},{"type":"Feature","properties":{"kind":"river","name":"Inn"},"geometry":{"type":"LineString","coordinates":[[9.848,46.4978],[9.8636,46.5097],[9.8658,46.5159],[9.8619,46.5204],[9.8686,46.5292],[9.8993,46.5464],[9.9016,46.5565],[9.9281,46.5815],[9.9413,46.5851],[9.9491,46.5918],[9.9727,46.602],[9.978,46.6095],[9.9944,46.6146],[9.9948,46.6176],[10.0042,46.6176],[10.008,46.6266],[10.0271,46.637],[10.0263,46.6466],[10.0651,46.6773],[10.0782,46.6817],[10.0885,46.6938],[10.0851,46.6989],[10.0931,46.7044],[10.0888,46.7065],[10.0878,46.715],[10.079,46.7173],[10.0773,46.7204],[10.0806,46.7246],[10.0789,46.7354],[10.084,46.7445],[10.0797,46.7469],[10.0803,46.7498]]}},{"type":"Feature","properties":{"kind":"river","name":"Inn"},"geometry":{"type":"LineString","coordinates":[[10.2377,46.7766],[10.2467,46.7787],[10.2519,46.784],[10.2721,46.789],[10.2866,46.7882],[10.2937,46.7896],[10.2969,46.7941],[10.3019,46.7917],[10.3086,46.7933],[10.3213,46.8036],[10.3319,46.8063],[10.3386,46.8046],[10.3451,46.8094],[10.3612,46.8135],[10.3609,46.8172],[10.3791,46.8276],[10.3833,46.8252],[10.4148,46.8365],[10.4228,46.8467],[10.4245,46.8585],[10.4334,46.8603],[10.4454,46.8701],[10.4562,46.8732],[10.475,46.8943],[10.4786,46.9107],[10.4861,46.9153],[10.4883,46.9261],[10.4864,46.9328],[10.5065,46.9456],[10.5162,46.9579],[10.5232,46.9578],[10.525,46.9627],[10.5387,46.9661],[10.5388,46.9709],[10.5437,46.9715]]}}]}