{"type":"FeatureCollection","features":[{"type":"Feature","properties":{"featurecla":"Lake","name":"Lake Maggiore","note":"Natural Earth 10m (labelled Lago di Como there)"},"geometry":{"type":"Polygon","coordinates":[[[8.846088,46.169067],[8.847854,46.1673],[8.849031,46.164945],[8.841672,46.154348],[8.78015,46.117553],[8.753363,46.099597],[8.74777,46.094298],[8.746004,46.092532],[8.744826,46.090177],[8.741883,46.083407],[8.741883,46.063979],[8.743943,46.053381],[8.752774,46.028949],[8.753069,46.027183],[8.753363,46.017469],[8.753069,46.015997],[8.752774,46.015703],[8.752185,46.014231],[8.750419,46.010699],[8.746004,46.003928],[8.738056,45.994509],[8.732463,45.989799],[8.7201,45.981557],[8.648569,45.945055],[8.618838,45.922684],[8.616778,45.920329],[8.607947,45.908554],[8.607947,45.90826],[8.607947,45.90826],[8.607947,45.907671],[8.607358,45.907082],[8.606475,45.905905],[8.606181,45.905316],[8.604415,45.88265],[8.621488,45.847032],[8.621488,45.827015],[8.61825,45.819656],[8.613246,45.814063],[8.607358,45.809942],[8.580277,45.798462],[8.574978,45.794341],[8.574978,45.794341],[8.574978,45.794047],[8.574978,45.794047],[8.572918,45.791103],[8.571151,45.787865],[8.570268,45.783744],[8.570268,45.779034],[8.570563,45.778445],[8.572035,45.776385],[8.572035,45.775502],[8.572623,45.774324],[8.576744,45.768143],[8.577039,45.767554],[8.577627,45.766671],[8.620605,45.72546],[8.618544,45.723988],[8.616484,45.723399],[8.614423,45.723105],[8.612068,45.722222],[8.594112,45.729875],[8.578805,45.741944],[8.566147,45.756957],[8.555845,45.773441],[8.54878,45.791103],[8.552018,45.800523],[8.559966,45.807587],[8.56703,45.818479],[8.574389,45.852036],[8.566442,45.869993],[8.52111,45.897663],[8.51375,45.905022],[8.4955,45.929749],[8.492851,45.937696],[8.494322,45.939757],[8.496383,45.941229],[8.498738,45.942406],[8.501387,45.942701],[8.503742,45.942995],[8.514634,45.941229],[8.540538,45.932987],[8.56026,45.932103],[8.591463,45.942995],[8.6156,45.955064],[8.627081,45.9636],[8.6783,46.010404],[8.68772,46.01482],[8.696551,46.020413],[8.713624,46.038663],[8.713918,46.05191],[8.706853,46.064567],[8.700377,46.081052],[8.700083,46.088705],[8.700377,46.091649],[8.700377,46.091943],[8.71068,46.110488],[8.733346,46.130505],[8.763371,46.149344],[8.795163,46.164357],[8.831369,46.171716],[8.841083,46.171421],[8.843733,46.170244],[8.846088,46.169067]]]}},{"type":"Feature","properties":{"featurecla":"Lake","name":"Lake Lugano"},"geometry":{"type":"Polygon","coordinates":[[[8.965587,45.952765],[8.975108,45.938483],[8.983043,45.921515],[8.977306,45.914252],[8.971446,45.923957],[8.960216,45.938849],[8.927989,45.927924],[8.9015,45.912726],[8.892711,45.941901],[8.885997,45.974372],[8.889659,45.981696],[8.894542,45.991095],[8.903331,45.999335],[8.906383,45.987494],[8.903087,45.966498],[8.902721,45.95008],[8.908824,45.936408],[8.924937,45.936408],[8.93922,45.953131],[8.951671,45.974982],[8.953258,45.998114],[8.96046,46.012397],[8.974132,46.011176],[8.989757,46.010871],[9.021617,46.023322],[9.066661,46.033393],[9.104503,46.039435],[9.121837,46.041266],[9.110606,46.026374],[9.06837,46.017829],[9.039317,46.016974],[9.007091,46.003302],[8.971446,45.974982],[8.965587,45.952765],[8.965587,45.952765]]]}}]}